"OWCODE","ShortCompanyName","CountryName","Telephone","Telex","Emailaddress","Website","FullName","NationalityofRegistration","NationalityofControl","LastChangeDate","CompanyStatus","FullAddress","Facsimile"
"0016363","P&O FERRIES LTD","United Kingdom","+44 1304 223000","965104","corporate@poferries.com","www.poferries.com","P&O Ferries Ltd ","United Kingdom","United Arab Emirates","20130930","","Channel House, Channel View Road, Dover, Kent, CT17 9TJ, United Kingdom.","+44 1304 863223"
"0017463","WALLEM SHIPMANAGEMENT LTD","Hong Kong, China","+852 2876 8200","74147nego","wsmhk@wallem.com","www.wallem.com","Wallem Shipmanagement Ltd (WSM) ","Hong Kong, China","Hong Kong, China","20130530","","12th Floor, Warwick House East, Taikoo Place, 979, Kings Road, Quarry Bay, Eastern, Hong Kong, China.","+852 2876 1234"
"0033503","THENAMARIS SHIPS MANAGEMENT","Greece","+30 210 890 9111","210468than","op@thenamaris.com","www.thenamaris.com","Thenamaris (Ships Management) Inc ","Liberia","Greece","20130404","","16, Athinas Avenue & Voreou Street, Vouliagmeni, 166 71 Athens, Greece.","+30 210 890 9653"
"0049282","PARADIP PORT TRUST","India","+91 67 2222 2017","0674211ppto","ppt@ori.nic.in","www.paradipport.gov.in","Paradip Port Trust ","India","India","20130109","","Paradip, 754142, India.","+91 67 2222 2047"
"0052882","SCI","India","+91 22 2202 6666","","ism.cell@sci.co.in","www.shipindia.com","The Shipping Corporation of India Ltd (SCI)","India","India","20130122","","Shipping House, 245, Madame Cama Road, Nariman Point, Mumbai, 400021, India.","+91 22 2202 6905"
"0069081","ELETSON CORP","Greece","+30 210 459 8300","213124","info@eletson.com","www.eletson.com","Eletson Corp ","Liberia","Greece","20140710","","118, Kolokotroni Street, 185 35 Piraeus, Greece.","+30 210 428 2320"
"0078283","MANTINIA SHIPPING CO SA","Greece","+30 210 429 5050","212260","info@mantinia-shipping.com","","Mantinia Shipping Co SA ","Panama","Greece","20130513","","51, Akti Miaouli, 185 36 Piraeus, Greece.","+30 210 429 5059"
"0081371","NEDA MARITIME AGENCY CO LTD","Greece","+30 210 103 0200","212556neda","technical@nedamaritime.gr","www.nedamaritime.gr","Neda Maritime Agency Co Ltd ","Liberia","Greece","20130121","","2, 2as Merarchias Street, 185 35 Piraeus, Greece.","+30 210 418 0751"
"0096090","ATLAS DD","Croatia","+385 20 442222","27515 ","call.centre@atlas.hr","www.atlas-croatia.com","Atlas dd ","Croatia","Croatia","20100510","","ul Vukovarska 19, HR-20000 Dubrovnik, Croatia.","+385 20 411100"
"0101856","NAVIGATION MARITIME BULGARE","Bulgaria","+359 52 683371","77351","diroffice@navbul.com","www.navbul.com","Navigation Maritime Bulgare ","Bulgaria","Bulgaria","20120702","","Navibulgar House, bul Primorski 1, 9000 Varna, Bulgaria.","+359 52 603154"
"0102695","POLSKA ZEGLUGA MORSKA PP","Poland","+48 91 359 4333","","pzmmanagement@polsteam.com.pl","www.polsteam.com","Polska Zegluga Morska PP (POLSTEAM) ","Poland","Poland","20081120","","Plac Rodla 8, 70-419 Szczecin, Poland.","+48 91 359 4288"
"0104467","EGYPTIAN NAVIGATION CO","Egypt","+20 3 480 3608","54311arnav","enc@dataxprs.com.eg","www.enc.com.eg","The Egyptian Navigation Co (ENC) ","Egypt","Egypt","20121002","","2, al-Nasr Street, al-Manshiyah, Alexandria, Egypt.","+20 3 483 1345"
"0104949","UNIVAN SHIP MANAGEMENT LTD","Hong Kong, China","+852 3143 7788","75249unvan","office@univan.com","www.univan.com","Univan Ship Management Ltd ","Hong Kong, China","Norway","20130625","","35th Floor, Citicorp Centre, North Point, 18, Whitfield Road, Causeway Bay, Hong Kong, China.","+852 2861 0742"
"0120158","MOLLER AP","Denmark","+45 33 63 33 63","19632mersk","","www.maersk.com","A P Moller ","Denmark","Denmark","20131112","","Esplanaden 50, 1098 Copenhagen, K, Denmark.","+45 33 63 41 08"
"0127141","MYANMA FIVE STAR LINE","Myanmar","+95 1 295279","","mfslhq@mptmail.net.mm","www.mfsl-shipping.com","Myanma Five Star Line ","Myanmar","Myanmar","20110616","","PO Box 1221, 132-136, Theinbyu Road, Yangon, Myanmar.","+95 1 297669"
"0128105","CARNIVAL CORP","United States of America","+1 305 599 2600","518915carnop","media@carnival.com","www.carnivalcorp.com","Carnival Corp ","Panama","United States of America","20140306","","3655, NW 87th Avenue, Doral FL 33178-2418, USA.","+1 305 406 6256"
"0146835","KAHN SCHEEPVAART BV","Netherlands","+31 10 413 4630","22068kahn","info@kahn.nl","","Kahn Scheepvaart BV (Kahn Shipping Ltd)","Netherlands","Netherlands","20130531","","Havenstraat 23, 3115 HC Schiedam, Netherlands.","+31 10 433 4624"
"0152944","MSC MEDITERRANEAN SHIPPING CO","Switzerland","+41 22 703 8888","427445msc","info@mscgva.ch","www.mscgva.ch","MSC Mediterranean Shipping Co SA ","Switzerland","Switzerland","20120716","","chemin Rieu, 12-14, 1208 Geneva, Switzerland.","+41 22 703 8787"
"0161412","PETROBRAS","Brazil","+55 21 2534 1786","5343351","bunker@petrobras.com.br","www.petrobras.com.br","Petroleo Brasileiro SA (PETROBRAS) ","Brazil","Brazil","20121122","","Sala 1104B, Avenida Republica do Chile 65, Centro, Rio de Janeiro RJ, 20031-912, Brazil.","+55 21 2534 2364"
"0186314","HYUNDAI MERCHANT MARINE CO LTD","Korea, South","+82 23 706 5114","24402hmarine","gys@hmm21.com","www.hmm.co.kr","Hyundai Merchant Marine Co Ltd (HMM) ","Korea, South","Korea, South","20130513","","Hyundai Group Building, 1-7, Yeonji-dong, Jongno-gu, Seoul, 110-052, South Korea.","+82 2 778 4341"
"0192009","CARSTEN REHDER SCHIFFSMAKLER","Germany","+49 40 311 8080","213098creh","welcome@carstenrehder.de","www.carstenrehder.de","Carsten Rehder Schiffsmakler und Reederei GmbH & Co KG","Germany","Germany","20110616","","Grosse Elbstrasse 42, 22767 Hamburg, Germany.","+49 40 3118 0813"
"0192468","CHEMIKALIEN SEETRANSPORT GMBH","Germany","+49 40 3690 3252","215227cst","office@cst-shipping.com","www.cst-shipping.com","Chemikalien Seetransport GmbH ","Germany","Germany","20120822","","Mattentwiete 1, 20457 Hamburg, Germany.","+49 40 3690 3206"
"0197870","DAIO KISEN YK","Japan","+81 823 453636","","","","Daio Kisen YK ","Japan","Japan","20100401","","3468-2, Takata, Nomi-cho, Etajima-shi, Hiroshima-ken, 737-2303, Japan.",""
"0203888","ERNST JACOB GMBH & CO KG","Germany","+49 461 86040","22694jacob","infofl@ernstjacob.de","www.ernstjacob.de","Ernst Jacob GmbH & Co KG ","Germany","Germany","20140407","","Postfach 1943, Suederhofenden 12, Altstadt, 24937 Flensburg, Germany.","+49 461 860466"
"0210451","GEFO","Germany","+49 40 301050","2162191gfo","info@gefo.com","www.gefo.com","GEFO Gesellschaft fur Oeltransporte mbH ","Germany","Germany","20110616","","Kurze Muehren 2, 20095 Hamburg, Germany.","+49 40 3010 5161"
"0234911","KIMURA KAIUN KK","Japan","+81 958 220496","","","","Kimura Kaiun KK ","Japan","Japan","20120125","","37, Shikimi-machi, Nagasaki-shi, Nagasaki-ken, 851-1137, Japan.","+81 958 266266"
"0235818","WORDEN GMBH & CO KG","Germany","+49 4144 619010","218664nav","stw@navalis-ship.com","www.navalis-ship.com","Schiffahrtskontor tom Worden GmbH & Co KG","Germany","Germany","20120305","","Wilhelm-Schroeder-Strasse 3, 21726 Oldendorf, Germany.","+49 4144 619011"
"0255909","TAIYO NIPPON KISEN CO LTD","Japan","+81 78 334 9700","","gad@tnkc.jp","www.taiyo.nipponkisen.co.jp","Taiyo Nippon Kisen Co Ltd ","Japan","Japan","20140205","","Towa Building, 2-3, Kaigan-dori 2-chome, Chuo-ku, Kobe-shi, Hyogo-ken, 650-0024, Japan.","+81 78 334 9719"
"0256059","NIPPON TOKUSHUSEN KK","Japan","+81 89 946 4329","","","","Nippon Tokushusen KK ","Japan","Japan","20070126","","6th Floor, Sumitomo Kaijo Matsuyama Building, 12-7, Sanban-cho 4-chome, Matsuyama-shi, Ehime-ken, 790-0003, Japan.","+81 89 931 0088"
"0256062","NYK LINE","Japan","+81 3 3284 5151","22236yusen","","www.nyk.com","Nippon Yusen Kabushiki Kaisha (NYK Line) ","Japan","Japan","20120820","","Yusen Building, 3-2, Marunouchi 2-chome, Chiyoda-ku, Tokyo-to, 100-0005, Japan.","+81 3 3284 5587"
"0277307","SAIKAI ENGAN","Japan","","","","","Saikai Engan Shosen KK ","Japan","Japan","20081124","","7-3, Yorozu-cho, Sasebo-shi, Nagasaki-ken, 857-0877, Japan.",""
"0279997","ROHDEN BEREEDERUNG GMBH","Germany","+49 40 391920","2162020rsb","office@rohden.de","www.rohden.de","Rohden Bereederung GmbH & Co KG ","Germany","Germany","20090915","","Michaelisstrasse 24, 20459 Hamburg, Germany.","+49 40 390 4853"
"0280765","SEATRADE GRONINGEN BV","Netherlands","+31 50 521 5300","53034seat","info@seatrade.nl","www.seatrade.nl","Seatrade Groningen BV ","Netherlands","Netherlands","20110617","","Laan Corpus den Hoorn 200, 9728 JS Groningen, Netherlands.","+31 50 521 5399"
"0284944","SLOMAN NEPTUN SCHIFFAHRTS","Germany","+49 421 176 3314","244421snbr","smgt@sloman-neptun.com","www.sloman-neptun.com","Sloman Neptun Schiffahrts-Aktiengesellschaft","Germany","Germany","20081103","","Langenstrasse 44, 28195 Bremen, Germany.","+49 421 176 3200"
"0299460","TSURUMARU SHIPPING CO LTD","Japan","+81 93 761 5631","715367","soumu@tsurumaru.co.jp","www.tsurumaru.co.jp","Tsurumaru Shipping Co Ltd ","Japan","Japan","20090423","","Tsurumaru Building, 5-11, Hon-machi 1-chome, Wakamatsu-ku, Kitakyushu-shi, Fukuoka-ken, 808-0034, Japan.","+81 93 771 6172"
"0310102","DFDS A/S","Denmark","+45 33 42 33 42","19453dfdsc dk","marine@dfds.com","www.dfds.com","DFDS A/S ","Denmark","Denmark","20121204","","Sundkrogsgade 11, 2100 Copenhagen, O, Denmark.","+45 33 42 33 41"
"0321889","UTKILEN AS","Norway","+47 55 30 78 00","40472utkil","office@utkilen.no","www.utkilen.no","Utkilen AS ","Norway","Norway","20130514","","Strandgaten 197, 5004 Bergen, Norway.","+47 85 02 80 20"
"0336577","ACCIONA TRASMEDITERRANEA","Spain","+34 91 423 8500","","infopax1@trasmediterranea.es","www.trasmediterranea.es","Cia Trasmediterranea SA (Acciona Trasmediterranea)","Spain","Spain","20130415","","planta 2, Edificio D, Calle de Anabel Segura 11, 28108 Alcobendas (Madrid), Spain.","+34 91 423 8555"
"0344771","EVERGREEN MARINE CORP","Chinese Taipei","+886 3 312 3871","","matma1@evergreen-marine.com","www.evergreen-marine.com","Evergreen Marine Corp (Taiwan) Ltd (EVERGREEN LINE)","Chinese Taipei","Chinese Taipei","20130415","","163, Xinnan Road, Sec 1, Luzhu Township, Taoyuan County, 33858, China, Republic of (Taiwan)","+886 3 322 6560"
"0351052","SWEDEN GOVT","Sweden","+46 8 405 1000","","","www.government.se","Government of The Kingdom of Sweden ","Sweden","Sweden","20140605","","Rosenbad 4, SE-103 33 Stockholm, Sweden.",""
"0367129","KNUTSEN OAS SHIPPING AS","Norway","+47 52 70 40 00","42204knut","firmapost@knutsenoas.com","www.knutsenoas.com","Knutsen OAS Shipping AS ","Norway","Norway","20110617","","Smedasundet 40, 5529 Haugesund, Norway.","+47 52 70 40 40"
"0367614","JEBSEN SKIPSREDERI AS","Norway","+47 55 17 51 00","42532kris","kgjs@kgjs.no","www.kgjs.no","Kristian Gerhard Jebsen Skipsrederi AS (KGJS)","Norway","Norway","20100803","","Folke Bernadottes vei 38, Fyllingsdalen, 5147 Bergen, Norway.","+47 55 17 51 21"
"0377173","MORAN TOWING CORP","United States of America","+1 203 442 2800","","","www.morantug.com","Moran Towing Corp ","United States of America","United States of America","20120925","","50, Locust Avenue, New Canaan CT 06840-4741, USA.","+1 203 442 2857"
"0403326","STOLT TANKERS BV","Netherlands","+31 10 299 6666","","stolthaven@stolt.com","www.stolt-nielsen.com","Stolt Tankers BV ","Netherlands","United States of America","20130704","","Haven 190, Westerlaan 5, 3016 CK Rotterdam, Netherlands.","+31 10 264 4400"
"0515924","OCEAN MARINE SERVICES INC","United States of America","+1 425 828 6434","","","www.offshoresystemsinc.com","Ocean Marine Services Inc ","United States of America","United States of America","20130930","","12019, 76th Place NE, Kirkland WA 98034-2437, USA.","+1 425 827 2105"
"0522961","ANGLO-EASTERN SHIP MANAGEMENT","Hong Kong, China","+852 2863 6111","75478aemas","aesm.hkg@angloeasterngroup.com","www.aesm.com.hk","Anglo-Eastern Ship Management Ltd ","Hong Kong, China","Hong Kong, China","20130530","","23rd Floor, 248, Queen's Road East, Wan Chai, Hong Kong, China.","+852 2861 2419"
"0555540","AZERBAIJAN CASPIAN SHIPPING","Azerbaijan","+994 12 493 2058","142102mrfwtsu","adxdg@caspar.az","www.caspar.az","Azerbaijan Caspian Shipping CJSC ","Azerbaijan","Azerbaijan","20141001","","M Rasulzade kucesi 5, Baku, Azerbaijan.","+994 12 493 5339"
"0555567","FESCO","Russia","+7 495 540 8000","","fesco@fesco.ru","www.fesco.ru","Far-Eastern Shipping Co (FESCO) (Dalnevostochnoye Morskoye Parokhodstvo)","Russia","Russia","20130314","","naberezhnaya Serebryanicheskaya 29, Moscow, 109028, Russia.","+7 423 2540 8100"
"0555655","SCF NOVOSHIP JSC","Russia","+7 861 760 1602","","vetting@novoship.ru","www.novoship.ru","SCF Novoship JSC (Novorossiysk Shipping Co)","Russia","Russia","20121205","","ul Svobody 1, Novorossiysk, Krasnodarskiy kray, 353900, Russia.","+7 861 760 1060"
"0586502","SUNSHIP SCHIFFAHRTSKONTOR KG","Germany","+49 4921 94050","27948sun","info@sunship.de","www.sunship.de","Sunship Schiffahrtskontor KG ","Germany","Germany","20080616","","Promenade Am Alten Binnenhafen 10, 26721 Emden-Ostfriesland, Germany.","+49 4921 940533"
"0605971","SHUNZAN KAIUN KK","Japan","+81 898 340700","","shunzn01@sweet.ocn.ne.jp","","Shunzan Kaiun KK (Shunzan Kaiun Co Ltd)","Japan","Japan","20110715","","2-1, Kitahorai-cho 2-chome, Imabari-shi, Ehime-ken, 794-0028, Japan.","+81 898 340600"
"0609960","PORT QASIM AUTHORITY","Pakistan","+92 21 9927 2111","2633qasim","","www.pqa.gov.pk","Port Qasim Authority ","Pakistan","Pakistan","20121204","","Bin Qasim, Karachi, 75020, Pakistan.","+92 21 3473 0108"
"0626322","INTERSEE SCHIFFAHRTSGES MBH","Germany","+49 5932 72020","98606d","info@intersee.de","www.intersee.de","Intersee Schiffahrtsgesellschaft mbH & Co KG","Germany","Germany","20131121","","Boschstrasse 15, 49733 Haren (Ems), Germany.","+49 5932 729220"
"0631141","SCORPIO SHIP MANAGEMENT SAM","Monaco","+377 97 98 57 00","469212scor","safety@scorpio.mc","www.scorpio.mc","Scorpio Ship Management SAM ","Monaco","Monaco","20130730","","Le Millenium, 9, boulevard Charles III, 98000 Monaco-Ville, Monaco.","+377 92 05 70 45"
"0640785","WORLD MARINE CO LTD","Japan","+81 3 5488 1261","2322410worldm","shipmd@worldm.co.jp","www.leonisnav.com.ph","World Marine Co Ltd ","Japan","Japan","20080131","","8th Floor, Kanpai Building, 22-27, Higashigotanda 5-chome, Shinagawa-ku, Tokyo-to, 141-0022, Japan.","+81 3 5488 1260"
"0642512","AVIN INTERNATIONAL SA","Greece","+30 210 809 3100","210608","avin@avin.gr","www.avin.gr","Avin International SA ","Panama","Greece","20120518","","12A, Irodou Attikou Street, Marousi, 151 24 Athens, Greece.","+30 210 809 3111"
"0662886","MURAKI KAISOTEN","Japan","+81 45 433 1345","","","","KK Muraki Kaisoten ","Japan","Japan","20080915","","17-7, Irie 1-chome, Kanagawa-ku, Yokohama-shi, Kanagawa-ken, 221-0014, Japan.","+81 45 432 4071"
"0668531","HANJIN SHIPPING CO LTD","Korea, South","+82 51 460 8262","52239","","www.hanjin.com","Hanjin Shipping Co Ltd ","Korea, South","Korea, South","20140901","","46, Chungjang-daero 9beon-gil, Jung-gu, Busan, 600-755, South Korea.","+82 51 460 8186"
"0691462","JUMBO SHIPPING CO SA","Netherlands","+31 10 790 0300","421189jmbo","info@jumbomaritime.nl","www.jumbomaritime.nl","Jumbo Shipping Co SA ","Netherlands","Netherlands","20140404","","Havenstraat 23, 3115 HC Schiedam, Netherlands.","+31 10 433 4624"
"0694657","MOLSHIP","Japan","+81 3 3587 6136","","safety@mosm.co.jp","www.mol.co.jp","MOL Ship Management Co Ltd (MOLSHIP) ","Japan","Japan","20080821","","3rd Floor, Mitsui OSK Lines Building, 1-1, Toranomon 2-chome, Minato-ku, Tokyo-to, 105-0001, Japan.","+81 3 3587 6202"
"0771929","TRANSOCEAN MARITIME AGENCIES","Monaco","+377 93 10 43 70","469521","transocean@transocean.mc","www.tma-mc.com","Transocean Maritime Agencies SAM ","Monaco","Monaco","20120329","","Le Panorama, 57, rue Grimaldi, 98000 Monte Carlo, Monaco.","+377 93 25 74 72"
"0779527","SAL HEAVY LIFT GMBH","Germany","+49 4142 81810","","sal@sal-heavylift.com","www.sal-heavylift.com","SAL Heavy Lift GmbH ","Germany","Japan","20130828","","Brooktorkai 20, 20457 Hamburg, Germany.","+49 4142 810281"
"0783189","CHELLARAM SHIPPING HONG KONG","Hong Kong, China","+852 2973 6111","77822cshkl","technical@chellship.com","www.chellship.com","Chellaram Shipping (Hong Kong) Ltd ","Hong Kong, China","Hong Kong, China","20090925","","1801, Dina House, Ruttonjee Centre, 11, Duddell Street, Central, Hong Kong, China.","+852 2971 1400"
"0783281","GRIEG STAR AS","Norway","+47 55 57 66 00","40576billa","admin.billabong@grieg.no","www.grieg.no","Grieg Star AS ","Norway","Norway","20121018","","Grieg-Gaarden, C. Sundts gate 17-19, 5004 Bergen, Norway.","+47 55 57 68 55"
"0802992","JUNQUERA MARITIMA SA","Spain","+34 98 519 5560","87321maas e","broker@gjunquera.com","www.gjunquera.com","G Junquera Maritima SA ","Spain","Spain","20120521","","Calle de Gregorio Maranon 1, 33203 Gijon (Asturias), Spain.","+34 98 519 5564"
"0907984","NISSAN MOTOR CAR CARRIER","Japan","+81 3 5541 6977","2523079nisca","e2-nmcc@nissancarrier.co.jp","www.nissancarrier.co.jp","Nissan Motor Car Carrier Co Ltd (Nissan Senyo Sen KK)","Japan","Japan","20090902","","Kayaba-cho Tower, 1-21-1, Shinkawa 1-chome, Chuo-ku, Tokyo-to, 104-0033, Japan.","+81 3 5541 6978"
"0921051","INDIA GOVT COAST GUARD","India","+91 11 2338 4934","03166359cghq","vprotect@indiancoastguard.nic.in","www.indiancoastguard.nic.in","Government of The Republic of India (Coast Guard)","India","India","20130404","","Coast Guard Headquarters, National Stadium Complex, New Delhi, Delhi, 110001, India.","+91 11 2338 3196"
"0929144","U-MING MARINE TRANSPORT CORP","Chinese Taipei","+886 2 2733 8000","15459ummarine","uming@metro.feg.com.tw","www.uming.com.tw","U-Ming Marine Transport Corp ","Chinese Taipei","Chinese Taipei","20081111","","29th Floor, Taipei Metro Tower, 207, Dunhua S Road, Section 2, Da-an District, Taipei City, 10602, China, Republic of (Taiwan)","+886 2 2735 9900"
"0946377","BORCOS SHIPPING SDN BHD","Malaysia","+60 85 419954","74259borcos","admin@borcos.com.my","www.borcos.com.my","Syarikat Borcos Shipping Sdn Bhd ","Malaysia","Malaysia","20110715","","PO Box 687, 3, Jalan Krokop, 98007 Miri, Sarawak, Malaysia.","+60 85 418854"
"0979251","MMS CO LTD","Japan","+81 3 3792 9811","2223612mms","tanker@mmstokyo.co.jp","","MMS Co Ltd ","Japan","Japan","20140722","","Surfeel Nakameguro Building, 18-12, Kamimeguro 1-chome, Meguro-ku, Tokyo-to, 153-0051, Japan.","+81 3 3792 5023"
"0999719","WESSELS REEDEREI GMBH & CO KG","Germany","+49 5932 5010","98635wesha","info@wessels.de","www.wessels.de","Wessels Reederei GmbH & Co KG ","Germany","Germany","20130930","","Industriestrasse 12-14, 49733 Haren (Ems), Germany.","+49 5932 50122"
"1025259","SK SHIPPING CO LTD","Korea, South","+82 51 605 0700","22626kocoln","smplanning@sk.com","www.skshipping.com","SK Shipping Co Ltd ","Korea, South","Korea, South","20130828","","19th Floor, 24, Toegye-ro, Jung-gu, Seoul, 100-711, South Korea.","+82 51 605 0770"
"1038263","NORBULK SHIPPING UK LTD","United Kingdom","+44 1415 523000","779192norship","mail@norbulkshipping.com","www.norbulkshipping.com","Norbulk Shipping UK Ltd ","United Kingdom","United Kingdom","20120704","","Norbulk House, 68, Glassford Street, Glasgow, G1 1UP, United Kingdom.","+44 1415 595250"
"1043140","MIFUKU KAIUN","Japan","","","","","Mifuku Kaiun YK ","Japan","Japan","20080804","","811, Sakate, Shodoshima-cho, Shozu-gun, Kagawa-ken, 761-4425, Japan.",""
"1090014","SESA GOA LTD","India","+91 832 229 8357","","","www.sesagoa.com","Sesa Goa Ltd ","India","India","20140130","","Sirsaim, Tivim, Bardez, Goa, 403502, India.","+91 832 299 8439"
"1096561","KZN BUNKERS PTY LTD","South Africa","+27 31 206 1360","","info@kznbumkers.co.za","www.kznbunkers.co.za","KZN Bunkers Pty Ltd ","South Africa","South Africa","20110706","","66, Hannah Road, Congella, Durban, 4001, South Africa.","+27 31 206 1356"
"1098363","LOS CIPRESES SA","Uruguay","+598 2 920670","23064rios","info@buquebus.es","www.buquebus.es","Los Cipreses SA (BUQUEBUS) ","Uruguay","Spain","20081024","","1400, Rio Negro Montevideo, Uruguay.","+598 2 922555"
"1125205","THORESEN & CO BANGKOK LTD","Thailand","+66 2 250 0569","84364thor","tta@thoresen.com","www.thoresen.com","Thoresen & Co (Bangkok) Ltd ","Thailand","Thailand","20110921","","26-27, 8th Floor, Orakan Building, 26, Chidlom Road, Kwaeng Lumphini, Khet Pathum Wan, Bangkok, 10330, Thailand.","+66 2 655 5631"
"1130611","MERCATOR LTD","India","+91 22 6637 3333","83846mll in","mercator@mercator.in","www.mercator.in","Mercator Ltd ","India","India","20111207","","3rd Floor, Mittal Tower, B-Wing, Nariman Point, Mumbai, 400021, India.","+91 22 6637 3344"
"1168545","WILSON SHIP MANAGEMENT AS","Norway","+47 55 30 82 00","40439jacc","shipmanagement@wilsonship.no","www.wilsonship.no","Wilson Ship Management AS ","Norway","Norway","20090108","","Bradbenken 1, 5835 Bergen, Norway.","+47 55 31 72 70"
"1180202","COLOMBIA GOVT ARMADA REPUBLICA","Colombia","","","","","Government of The Republic of Colombia (Armada Republica de Colombia) ","Colombia","Colombia","20060222","","Comando Fuerza Naval del Atlantico, Cartagena de Indias, Colombia.",""
"1205958","BORA DENIZCILIK","Turkey","+90 216 383 7755","36707abor","bora@borashipping.com","www.borashipping.com","Bora Denizcilik Sanayi ve Ticaret AS (Bora Shipping Industry & Trading Co Inc) ","Turkey","Turkey","20121101","","Sehit Pilot Ahmet Altas Caddesi 4, Yali Mah, Maltepe, 34844 Istanbul, Turkey.","+90 216 383 7766"
"1216189","FRONTLINE MANAGEMENT AS","Norway","+47 23 11 40 00","74011front","operation@frontmgt.no","www.frontline.bm","Frontline Management AS ","Norway","Bermuda","20140319","","Bryggegata 3, 0250 Oslo, Norway.","+47 23 11 40 40"
"1216303","DENIZSAN GEMI ISLETMECILIGI","Turkey","+90 216 306 7120","36583","gemi@denizsan.com","www.denizsan.com","Denizsan Gemi Isletmeciligi ve Ticaret AS","Turkey","Turkey","20140320","","Atolyeler Sokak 3, Yunus Mah, Kartal, 34873 Istanbul, Turkey.","+90 216 488 8494"
"1220552","HARTMANN SCHIFFAHRTS GMBH & CO","Germany","+49 491 92880","27633ahart","info@hartmann-reederei.de","www.hartmann-reederei.de","Hartmann Schiffahrts GmbH & Co KG (Hartmann Reederei)","Germany","Germany","20111116","","Koenigstrasse 23, 26789 Leer (Ostfriesland), Germany.","+49 491 928 8200"
"1249369","STENA LINE SCANDINAVIA AB","Sweden","+46 31 858000","21914stena","press@stenaline.com","www.stenaline.com","Stena Line Scandinavia AB ","Sweden","Sweden","20130814","","Stena Denmark Terminal, SE-405 19 Gothenburg, Sweden.","+46 31 241038"
"1252195","EASTERN MEDITERRANEAN MTME-LIE","Greece","+30 210 969 9700","210489","email@eastmed.gr","www.eastmed.gr","Eastern Mediterranean Maritime Ltd ","Liechtenstein","Greece","20131031","","69, Grigoriou Lampraki Street, Glyfada, 166 75 Athens, Greece.","+30 210 960 4430"
"1285755","WILLIAMS SHIPPING MARINE","United Kingdom","+44 2380 529555","","enquiries@williams-shipping.co.uk","www.williams-shipping.co.uk","Williams Shipping Marine Ltd ","United Kingdom","United Kingdom","20130924","","Manor House Avenue, Southampton, SO15 0LF, United Kingdom.","+44 2380 529444"
"1294033","DOF MANAGEMENT AS","Norway","+47 56 18 10 00","","management@dof.no","www.dofman.no","DOF Management AS ","Norway","Norway","20130624","","Alfabygget, 5392 Storebo, Norway.","+47 56 18 10 06"
"1314037","MTM SHIP MANAGEMENT PTE LTD","Singapore","+65 6304 1770","","singapore@mtmsm.com","www.mtmshipmanagement.com","MTM Ship Management Pte Ltd ","Singapore","United States of America","20130611","","13-01, 78, Shenton Way, Singapore 079120","+65 6220 7988"
"1314173","EASTERN PACIFIC SHIPPING PTE","Singapore","+65 6433 5225","","general@epshipping.com.sg","www.epshipping.com.sg","Eastern Pacific Shipping Pte Ltd ","Singapore","Singapore","20140507","","38-01, Millenia Tower, 1, Temasek Avenue, Singapore 039192","+65 6336 5311"
"1316943","UNICOM MANAGEMENT SERV-CYP","Cyprus","+357 2589 0000","3002unicom","unicom@scf-group.com","www.unicom-cy.com","Unicom Management Services (Cyprus) Ltd","Cyprus","Russia","20130405","","SCF Unicom Tower, Maximos Plaza, 18, Maximou Michailidi Street, Neapolis, 3106 Limassol, Cyprus.","+357 2589 0089"
"1368147","DADAYLILAR DENIZ","Turkey","","","","","Dadaylilar Deniz Nakliyati Ticaret Kollektif Sti","Turkey","","20071109","","Yeni Hayat Sokak 17, Yavuzsinan Mah, Eminonu, 34134 Istanbul, Turkey.",""
"1406266","SMT SHIPPING CYPRUS LTD","Cyprus","+357 2582 0000","","smtcy@smt.com.cy","www.smtgroup.eu","SMT Shipping (Cyprus) Ltd ","Cyprus","Cyprus","20130828","","Suite 702A, 7th Floor, Nicolaou Pentadromos Center, Pentadromos Junction, 3312 Limassol, Cyprus.","+357 2574 9080"
"1407781","XIAMEN DONGMING SHIPPING CO","China, People's Republic of","+86 592 226995","","webmaster@xmdm-ship.com","","Xiamen Dongming Shipping Co Ltd ","China, People's Republic of","China, People's Republic of","20091104","","12, Shoushan Lu, Siming Qu, Xiamen, Fujian, 361001, China.","+86 592 202 6995"
"1418224","ITM LTD-UAE","United Arab Emirates","+971 4 352 9555","49466itmdxb em","itm.dubai@tankermanager.com","www.tankermanager.com","International Tanker Management Ltd ","United Arab Emirates","United Arab Emirates","20120210","","Room 401, Rais Hassan Saadi Building, al-Mankhool Road, PO Box 24415, Dubai, United Arab Emirates.","+971 4 351 5469"
"1424568","CANDLER SCHIFFAHRT GMBH","Germany","+49 421 691640","245064","ships@candler.eu","www.candler.eu","Candler Schiffahrt GmbH ","Germany","Germany","20130528","","Martinistrasse 29, 28195 Bremen, Germany.","+49 421 337 9433"
"1446774","FURTRANS DENIZCILIK","Turkey","+90 216 544 5151","29359furt","furtrans@furtrans.com.tr","","Furtrans Denizcilik Ticaret ve Sanayi AS (Furtrans Shipping & Trading AS) ","Turkey","Turkey","20121214","","Mehmet Aktan Sokak 9/11, Kosuyolu Mah, Kadikoy, 34718 Istanbul, Turkey.","+90 216 544 5144"
"1482851","COSCO HK SHIPPING CO LTD","Hong Kong, China","+852 2809 8688","73462","hkop@coscochs.com.hk","www.coscochs.com.hk","COSCO (HK) Shipping Co Ltd ","Hong Kong, China","China, People's Republic of","20130930","","51st Floor, COSCO Tower, 183, Queen's Road Central, Hong Kong, China.","+852 2907 7909"
"1509526","MARAN TANKERS MANAGEMENT INC","Greece","+30 213 017 4500","214341kris","mail@marantankers.gr","","Maran Tankers Management Inc ","Liberia","Greece","20110623","","8, Achilleos & Lamprou Katsoni Streets, Kallithea, 176 74 Athens, Greece.","+30 213 017 4800"
"1530186","VARSHIP SHIPPING CO LTD","Greece","+30 210 898 3063","210509wind","oper@varship.gr","www.varship.gr","Varship Shipping Co Ltd ","Greece","Greece","20081003","","71, Poseidonos Avenue, Glyfada, 166 74 Athens, Greece.","+30 210 894 6959"
"1532461","NORWEGIAN CAR CARRIERS ASA","Norway","+47 23 11 64 64","78425","nocc@noccasa.no","www.noccasa.no","Norwegian Car Carriers ASA ","Norway","Norway","20130328","","Drammensveien 167, 0277 Oslo, Norway.","+47 23 11 64 60"
"1533472","SOMIT SRL","Italy","+39 041 554 4467","","info@somit.it","www.somit.it","SOMIT Srl ","Italy","Italy","20140618","","Via Maestri del Lavoro 50, 30015 Chioggia VE, Italy.","+39 041 554 4257"
"1535947","MSC SHIPMANAGEMENT LTD","Cyprus","+357 2584 4800","","safety@mscsmcy.com","www.mscgva.ch","MSC Shipmanagement Ltd ","Cyprus","Switzerland","20140425","","MSC House, 8, Spyrou Kyprianou Avenue, Limassol, Cyprus.","+357 2584 4707"
"1540307","FUJIAN ANDA SHIPPING CO LTD","China, People's Republic of","+86 595 2256 0188","","anda@fjanda.com.cn","www.fjanda.com.cn","Fujian Anda Shipping Co Ltd ","China, People's Republic of","China, People's Republic of","20111007","","Antougang Lu, Dongyuanzhen, Hui'an Xian, Fujian, 362122, China.","+86 595 2253 1669"
"1547366","CIDO SHIPPING HK CO LTD","Hong Kong, China","+852 3907 2200","","","","Cido Shipping (HK) Co Ltd ","Hong Kong, China","Hong Kong, China","20130408","","20th Floor, World Wide House, 19, Des Voeux Road Central, Hong Kong, China.","+852 3907 2211"
"1551421","KHAZAR SEA SHIPPING LINES","Iran","+98 181 322 3801","232197ksco","info@khazarshipping.com","www.khazarshipping.com","Khazar Sea Shipping Lines ","Iran","Iran","20130319","","Shahid Mostafa Khomeini Street Ghazian Street, PO Box 43145/1711-324, 4315671145 Bandar Anzali, Iran.","+98 181 322 8382"
"1580214","U-MING MARINE TRANSPORT-SNG","Singapore","+65 6289 9397","23991umings","umingsgp@uming.com.sg","www.uming.com.tw","U-Ming Marine Transport (Singapore) Pte Ltd","Singapore","Chinese Taipei","20140114","","02-01, Cemtex Industrial Building, 5, Little Road, Singapore 536983","+65 6289 9809"
"1586071","CSL AMERICAS","United States of America","+1 978 922 1300","49615296csl","info@cslint.com","www.cslint.com","CSL Americas ","United States of America","Canada","20131017","","Suite 7, 152, Conant Street, Beverly MA 01915-1659, USA.","+1 978 922 1772"
"1592194","SAMUDERA INDONESIA SHIP","Indonesia","+62 21 690 7130","","sismjkt@sism.co.id","","PT Samudera Indonesia Ship Management (PT SISM)","Indonesia","Indonesia","20131111","","Jalan Kali Besar Barat 43, Jakarta, 11230, Indonesia.","+62 21 690 8348"
"1601573","FLEET MANAGEMENT LTD-HKG","Hong Kong, China","+852 2861 3511","79611fltmg","fml@fleetship.com","www.fleetship.com","Fleet Management Ltd ","Hong Kong, China","Hong Kong, China","20140605","","11th Floor, Dah Sing Financial Centre, 108, Gloucester Road, Wan Chai, Hong Kong, China.","+852 2528 1550"
"1605338","TECHNOMAR SHIPPING INC","Greece","+30 210 623 3670","216964","info@technomar.gr","","Technomar Shipping Inc ","Marshall Islands","Greece","20121016","","3-5, Menandrou Street, Kifisia, 145 61 Athens, Greece.","+30 210 808 4224"
"1645660","HOEGH FLEET SERVICES AS","Norway","+47 21 03 90 00","79350hship","hfs@hoegh.com","www.hoegh.no","Hoegh Fleet Services AS ","Norway","Norway","20110624","","Drammensveien 134, 0277 Oslo, Norway.","+47 21 03 90 01"
"1666334","HOANG PHUONG CO LTD","Vietnam","+84 31 382 3633","","hoangphuongship@vnn.vn","","Hoang Phuong Co Ltd (Cong Ty Trach Nhiem Huu Han Hoang Phuong) ","Vietnam","Vietnam","20101125","","1N, Ming Khai, Hong Bang District, Haiphong City, Vietnam.","+84 31 374 6959"
"1679101","VALIANT SHIPPING SA","Greece","+30 210 960 5840","214364vlt","valiant@hol.gr","","Valiant Shipping SA ","Liberia","Greece","20120726","","2nd Floor, 114, Vouliagmenis Avenue, Glyfada, 166 74 Athens, Greece.","+30 210 960 5845"
"1681296","CIDO SHIPPING KOREA CO LTD","Korea, South","+82 51 660 7700","","csqt@cidoship.com","www.cidoship.com","Cido Shipping (Korea) Co Ltd ","Korea, South","Hong Kong, China","20100706","","Dongil Building, 1213-3, Choryang 1-dong, Dong-gu, Busan, 601-839, South Korea.","+82 51 660 7704"
"1685961","MAKHACHKALA PORT","Russia","+7 872 270 0298","175156port","mmmtp@mail.ru","www.mmport.ru","State Enterprise Makhachkala International Sea Commercial Port","Russia","Russia","20130401","","shosse Portovoye 5, Makhachkala, Dagestan, 367000, Russia.","+7 872 270 0688"
"1698065","MERLUS FISHING PTY LTD","Namibia","","","","","Merlus Fishing Pty Ltd ","Namibia","Namibia","20100510","","PO Box 1996, Ben Amathila Avenue, Walvis Bay, Namibia.",""
"1704970","LARUS SA","Greece","+30 210 428 7315","211435","larus@larus.gr","","Larus SA ","Liberia","Greece","20120911","","81, Akti Miaouli, 185 38 Piraeus, Greece.","+30 210 428 3216"
"1729117","SIBUM","Germany","+49 5932 733870","","reederei@sibum.de","www.sibum.de","Reederei Bernd Sibum GmbH & Co KG ","Germany","Germany","20060327","","Emsstrasse 44, 49733 Haren (Ems), Germany.","+49 5932 733 8733"
"1736635","TRITON SCHIFFAHRTS GMBH","Germany","+49 491 927610","27608triton","triton@reedereitriton.de","www.reedereitriton.de","Triton Schiffahrts GmbH ","Germany","Netherlands","20080813","","Hafenstrasse 6, 26789 Leer (Ostfriesland), Germany.","+49 491 927 6122"
"1737032","ODYSSEA VESSELS INC","United States of America","+1 985 385 0189","","info@odysseamarine.com","www.odysseamarine.com","Odyssea Vessels Inc ","United States of America","United States of America","20110624","","2250, River Road, Berwick LA 70342-3002, USA.","+1 985 384 8545"
"1754044","CONSOLIDATED MARINE MANAGEMENT","Greece","+30 210 459 5100","211096cmm","cmm@cmm.gr","www.cmm.gr","Consolidated Marine Management Inc (CMM)","Panama","Bermuda","20140714","","4, Xenias Street, Kifisia, 145 62 Athens, Greece.","+30 210 428 7334"
"1754469","FRONTLINE LTD","Bermuda","+1 441 295 6935","","info@frontmgt.no","www.frontmgt.no","Frontline Ltd ","Bermuda","Bermuda","20130125","","Par-la-Ville Place, 14, Par la Ville Road, Hamilton, HM 08, Bermuda.","+1 441 295 3494"
"1760272","CORAL SHIPPING CORP","Greece","+30 210 960 2008","214320crl","coralcorp@coral-corp.com","www.coral-corp.com","Coral Shipping Corp ","Liberia","Greece","20120802","","12, Kithiron Street, 174 55 Athens, Greece.","+30 210 960 2013"
"1779272","LINDALIINI","Estonia","+372 699 9340","","info@lindaliini.ee","www.lindaliini.ee","Lindaliini AS ","Estonia","Estonia","20140619","","Adala tn 4A, 10614 Tallinn, Estonia.","+372 699 9341"
"1782696","ODYSSEA MARINE INC","United States of America","+1 985 693 5707","","info@odysseamarine.com","www.odysseamarine.com","Odyssea Marine Inc ","United States of America","United States of America","20131203","","11864, Highway 308, Larose LA 70373-5877, USA.","+1 985 693 5695"
"1795520","CHINA SHIPPING PASSENGER LINER","China, People's Republic of","+86 411 8263 0160","","zhky@cnshipping.com","www.cspl.com.cn","China Shipping Passenger Liner Co Ltd ","China, People's Republic of","China, People's Republic of","20110506","","1, Minzhu Plaza, Zhongshan Qu, Dalian, Liaoning, 116001, China.","+86 411 8263 0316"
"1852847","UNIBROS SHIPPING CORP","Greece","+30 210 452 0204","212090nico","mail@unibros.gr","www.unibros.gr","Unibros Shipping Corp ","Liberia","Greece","20120615","","139, Notara Street, 185 36 Piraeus, Greece.","+30 210 452 0203"
"1853111","SHANGHAI PUYUAN SHIPPING CO","China, People's Republic of","+86 21 5028 1188","","puyuan@puyuanship.com","www.shpuyuan.com","Shanghai Puyuan Shipping Co Ltd ","China, People's Republic of","China, People's Republic of","20131011","","12th Floor, 600, Minsheng Lu, Pudong Xinqu, Shanghai, China.","+86 21 5851 4552"
"1861598","KOPERVIK SHIP MANAGEMENT AS","Norway","+47 52 84 55 50","","post@kopervikshipping.no","www.kopervikshipping.no","Kopervik Ship Management AS ","Norway","Norway","20110624","","Hovedgaten 57, 4250 Kopervik, Norway.","+47 52 84 55 51"
"1871197","V SHIPS CANADA INC","Canada","+1 514 841 6800","","canada@vships.com","www.vships.com","V Ships Canada Inc ","Canada","Monaco","20131219","","Suite 223, 759, rue du Square-Victoria, Montreal QC H2Y 2J7, Canada.","+1 514 841 6828"
"1880028","OCEAN SPARKLE LTD","India","+91 40 2374 1138","","oslhyd@oceansparkle.in","www.oceansparkle.com","Ocean Sparkle Ltd ","India","India","20111130","","1st Floor, Plot 128, Srinagar Colony, Hyderabad, 500073, India.","+91 40 2374 8752"
"1881295","HANSA SHIPPING GMBH & CO KG","Germany","+49 40 309 5910","","info@hansashipping.de","www.hansashipping.de","Hansa Shipping GmbH & Co KG ","Germany","Germany","20140911","","An der Alster 9, 20099 Hamburg, Germany.","+49 40 3095 9111"
"1889477","V SHIPS ASIA GROUP PTE LTD","Singapore","+65 6885 0610","22012vships","vssinopstech@vships.com","www.vships.com","V Ships Asia Group Pte Ltd ","Singapore","Monaco","20121018","","24-01, Keppel Towers, 10, Hoe Chiang Road, Singapore 089315","+65 6324 0977"
"1897790","SELANDIA SHIP MANAGEMENT INDIA","India","+91 22 6704 1000","","technical.in@selandia-group.com","www.selandia-group.com","Selandia Ship Management (India) Pvt Ltd ","India","India","20120214","","Room 102, Remi BizCourt, Plot 9, Shah Industrial Estate, Veera Desai Road, Andheri (W), Mumbai, 400053, India.","+91 22 6704 1011"
"1898149","BW MARITIME PTE LTD","Singapore","+65 6337 2133","","marinesafety.sgp@bwshipping.com","www.bwshipping.com","BW Maritime Pte Ltd ","Singapore","Bermuda","20101229","","18-01, Mapletree Business City, 10, Pasir Panjang, Singapore 117438","+65 6337 1623"
"1898811","COLUMBIA SHIPMANAGEMENT-GEU","Germany","+49 40 361 3040","","csm@csm-d.com","www.csm-d.com","Columbia Shipmanagement (Deutschland) GmbH","Germany","Cyprus","20130412","","Grosse Elbstrasse 275, 22767 Hamburg, Germany.","+49 40 3613 04550"
"1915837","NINGBO MERCHANT SHIPPING CO","China, People's Republic of","+86 574 8734 6021","","nbms@mail.nbptt.zj.cn","","Ningbo Merchant Shipping Co Ltd ","China, People's Republic of","China, People's Republic of","20121219","","8, Xianqian Jie, Haishu Qu, Ningbo, Zhejiang, China.","+86 574 8734 6055"
"1919790","PERU GOVT NAVY","Peru","","","","","Government of The Republic of Peru, (Peru Navy)","Peru","Peru","20100222","","Peru.",""
"1922502","PALMALI CO LTD","Russia","+7 863 268 8195","","palmali@palmali.com","www.palmali.com","Palmali Co Ltd ","Russia","Turkey","20130220","","Office 602, prospekt Budyonnovskiy 2, Rostov-na-Donu, 344007, Russia.","+7 863 268 8198"
"1924733","KOMA SHIPPING SERVICE LTD","Russia","+7 815 240 0903","","kssl_karandasov@com.mels.ru","www.kssl.ru","Koma Shipping Service Ltd ","Russia","Russia","20130227","","ul Sofi Perovskoy 31/11, Murmansk, 183038, Russia.","+7 815 240 0900"
"1933966","AUGUSTEA ATLANTICA SPA","Italy","+39 081 598 0911","05194078445","augustea.atlantica@augustea.com","www.augustea.com","Augustea Atlantica SpA ","Italy","Italy","20100226","","Viale Antonio Gramsci 5, 80122 Naples NA, Italy.","+39 081 248 6226"
"1941881","OLDENDORFF CARRIERS GMBH & CO","Germany","+49 451 15000","26411eolue","fleet@oldendorff.com","www.oldendorff.com","Oldendorff Carriers GmbH & Co KG ","Germany","Germany","20120913","","Willy-Brandt-Allee 6, 23554 Luebeck, Germany.","+49 451 73522"
"1950377","TANDI MARINE INC","United States of America","+1 985 475 5707","","","www.amtmarine.com","Tandi Marine Inc ","United States of America","United States of America","20140716","","408, Worth Avenue, Lafayette LA 70508-6637, USA.","+1 985 475 5695"
"1958148","RGWT INC","United States of America","","","","","RGWT Inc ","United States of America","United States of America","20140909","","Suite 300, 400, Oceangate, Long Beach CA 90802-4392, USA.",""
"1966797","WINSTAR SHIPPING PTE LTD","Singapore","+65 6220 0495","","enquiry@winstar.com.sg","www.winstar.com.sg","Winstar Shipping Pte Ltd ","Singapore","Singapore","20130930","","39B, Neil Road, Singapore 088823","+65 6271 0922"
"1968365","NYK SHIPMANAGEMENT PTE LTD","Singapore","+65 6416 7500","","nyksm@nyksm.com.sg","www.nyksm.com.sg","NYK Shipmanagement Pte Ltd ","Singapore","Japan","20140116","","15-01, HarbourFront Tower One, 1, Harbourfront Place, Singapore 098633","+65 6416 9921"
"1971157","DOCKWISE SHIPPING BV","Netherlands","+31 76 548 4100","","dockwise.netherlands@dockwise.com","www.dockwise.com","Dockwise Shipping BV ","Netherlands","Netherlands","20130625","","Lage Mosten 21, 4822 NJ Breda, Netherlands.","+31 76 548 4299"
"1973737","V SHIPS GERMANY GMBH","Germany","+49 40 853 9470","","vships.germany@vships.com","www.vships.com","V Ships (Germany) GmbH ","Germany","Monaco","20130618","","Gustav-Stresemann-Haus, Stresemannstrasse 342, 22761 Hamburg, Germany.","+49 40 8539 4718"
"1975163","SKANSI MARINE LLC","United States of America","+1 504 286 1002","","","www.skansimarine.com","Skansi Marine LLC ","United States of America","United States of America","20130705","","141, Robert E Lee Boulevard, New Orleans LA 70124-2534, USA.","+1 504 286 1006"
"1987170","HUB SHIPPING SDN BHD","Malaysia","+60 3 3325 2772","","investor.relations@hubline.com","www.hubline.com","Hub Shipping Sdn Bhd ","Malaysia","Malaysia","20130227","","B-10/1, 10th Floor, North Tower, BBT One, 1, Lebuh Batu Nilam, Bandar Bukit Tinggi, 41200 Klang, Selangor, Malaysia.","+60 3 3325 2442"
"1991282","ITM HOLDING","United Arab Emirates","+971 4 440 3600","49466itmdxb em","itm.dubai@tankermanager.com","www.tankermanager.com","International Tanker Management Holding Ltd (ITM Holding)","United Arab Emirates","United Arab Emirates","20140905","","Office 809, Executive Heights, DAMAC Building, Tecom C, PO Box 24415, Dubai, United Arab Emirates.","+971 4 440 3605"
"1996500","CARNIVAL PLC","United Kingdom","+44 20 7940 4466","","carnivaluk@carnival.com","www.carnivalukgroup.com","Carnival Plc (Carnival UK) ","United Kingdom","United States of America","20110428","","Carnival House, 5, Gainsford Street, London, SE1 2NE, United Kingdom.","+44 20 7940 4461"
"1998214","SEA RHYTHM ENTERPRISE PTE LTD","Singapore","+65 6225 1993","","searhythm@ctm.com.sg","www.ctm.com.sg","Sea Rhythm Enterprise Pte Ltd ","Singapore","Singapore","20130325","","B1-11, Chinatown Plaza, 34, Craig Road, Singapore 089673","+65 6227 2773"
"2057932","CARNIVAL CRUISE LINES","United States of America","+1 305 599 2600","","eroberts@carnival.com","www.carnival.com","Carnival Corp (Carnival Cruise Lines) ","United States of America","United States of America","20140501","","Carnival Corp, A Panama Corp, 3655, NW 87th Avenue, Doral FL 33178-2418, USA.","+1 305 406 6256"
"3025886","MAERSK OIL NORTH SEA UK","United Kingdom","+44 1224 242000","","","www.maerskoil.com","Maersk Oil North Sea UK Ltd ","United Kingdom","Denmark","20120224","","Maersk House, Crawpeel Road, Altens, Aberdeen, AB12 3LG, United Kingdom.","+44 1224 242510"
"3026028","MAERSK OIL UK LTD","United Kingdom","+44 1224 242000","","","www.maerskoil.com","Maersk Oil UK Ltd ","United Kingdom","Denmark","20090519","","Ninian House, Crawpeel Road, Altens, Aberdeen, AB12 3LG, United Kingdom.","+44 1224 242114"
"4001177","MURMANSK TRAWL FLEET CO","Russia","+7 815 228 8111","126110trflt","mtf@mtf.ru","www.mtf.ru","Murmansk Trawl Fleet Co (OAO 'Murmanskiy Tralovyy Flot')","Russia","Russia","20130417","","ul Shmidta 43, Murmansk, 183038, Russia.","+7 815 228 8070"
"4005696","ROYAL CARIBBEAN CRUISES LTD","United States of America","+1 305 539 6000","","investorrelations@rccl.com","www.royalcaribbean.com","Royal Caribbean Cruises Ltd (RCCL) ","Liberia","United States of America","20130906","","1050, Caribbean Way, Miami FL 33132-2028, USA.","+1 305 374 7354"
"4011363","STAR CLIPPERS MONACO SAM","Monaco","+377 97 97 84 00","","info.monaco@starclippers.com","www.starclippers.com","Star Clippers Monaco SAM ","Monaco","Monaco","20120321","","Clipper Palace, 4, rue de La Turbie 98000 Monaco-Ville, Monaco.","+377 97 97 84 01"
"4023631","MURMANRYBVOD","Russia","+7 815 245 8678","126430zona","mrv@an.ru","","Murmansk Basin Administration for Fishery Protection & Conservation (Upravleniye 'Murmanrybvod') ","Russia","Russia","20110414","","ul Kominterna 7, Murmansk, 183038, Russia.","+7 815 245 6028"
"4034811","NGOC MINH TRANGDING SHIPPING","Vietnam","+84 36 375 3467","","","","Ngoc Minh Trangding Shipping Service JSC ","Vietnam","","20130712","","26, Zone 4, Diem Dien, Thai Thuy District, Thai Binh Province, Vietnam.","+84 36 375 3467"
"4059320","DANDONG DALUDAO HAIXING","China, People's Republic of","+86 415 759 9218","","","","Dandong Daludao Haixing Enterprise (Group) Co Ltd","China, People's Republic of","China, People's Republic of","20130731","","Daludaocun, Gushanzhen, Donggang, Liaoning, 118313, China.","+86 415 759 9569"
"4063052","HIGHLINE SHIPPING SDN BHD","Malaysia","+60 85 622211","","hlssb@tm-net.my","","Highline Shipping Sdn Bhd ","Malaysia","Malaysia","20110811","","2nd Floor, Lot 2559-2560, Jalan Bulatan Park, Piasau Industrial Estate, 98000 Miri, Sarawak, Malaysia.","+60 85 622244"
"4063154","MARINE TOWING OF TAMPA","United States of America","+1 813 242 6500","","operations@marinetowingtampa.com","www.marinetowingtampa.com","Marine Towing of Tampa Inc ","United States of America","United States of America","20070201","","908, S 20th Street, Tampa FL 33605-6306, USA.","+1 813 242 4525"
"4077958","AGRICULTURE LEASING CO I","Vietnam","+84 4 3574 5417","","","www.alc1.com.vn","Agriculture Leasing Co I ","Vietnam","Vietnam","20120823","","4, Pham Ngoc Thach, Dong Da District, Hanoi City, Vietnam.","+84 4 3574 5431"
"4079336","PALMALI SHIPPING & AGENCY","Turkey","+90 212 350 0900","26066palitr","palmali@palmali.com","www.palmali.com","Palmali Gemicilik ve Acentelik AS (Palmali Shipping & Agency)","Turkey","Turkey","20140130","","Blok L, Maya Siteleri No 1, Ebululamardin Caddesi, Akatlar Mah, Besiktas, 34335 Istanbul, Turkey.","+90 212 350 0909"
"4086338","CASPIAN MARINE CO LTD","Russia","+7 851 261 2023","","ispolin@kb.telecomnet.ru","","Caspian Marine Co Ltd ","Russia","","20121008","","ul Zhelyabova 31, Astrakhan, 414000, Russia.","+7 851 261 2023"
"4088864","NINGBO DONGHAI SHPG CO LTD","China, People's Republic of","+86 574 8738 1098","","","","Ningbo Donghai Shipping Co Ltd ","China, People's Republic of","China, People's Republic of","20060720","","9th Floor, 1, Baisha Lu, Jiangbei Qu, Ningbo, Zhejiang, 315020, China.","+86 574 8735 2301"
"4095645","HAI LONG SHIPPING CO LTD","Vietnam","+84 31 827297","","","","Hai Long Shipping Co Ltd ","Vietnam","Vietnam","20090907","","42, Nguyen Trai, Ngo Quyen District, Haiphong City, Vietnam.","+84 31 827465"
"4099594","LIEN PHU RIVER SEA TRANS CO","Vietnam","+84 350 388 3143","","","","Lien Phu River Sea Transport Co Ltd ","Vietnam","Vietnam","20110808","","Truc Ninh District, Nam Dinh Province, Vietnam.","+84 350 384 3143"
"4100598","HONG DUONG CO LTD","Vietnam","+84 31 874322","","","","Hong Duong Co Ltd ","Vietnam","Vietnam","20050517","","An Lu, Thuy Nguyen District, Haiphong City, Vietnam.",""
"4100686","HONG KONG CHENGLU INTL SHIP","Hong Kong, China","","","hkclsm@vip.163.com","","Hong Kong Chenglu International Ship Management Co Ltd","Hong Kong, China","China, People's Republic of","20081015","","Room 3 1318-20, 13th Floor, Hollywood Plaza, 610, Nathan Road, Mong Kok, Kowloon, Hong Kong, China.",""
"4101605","HAI XUAN SERVICE & SHPG CO LTD","Vietnam","+84 36 713268","","","","Hai Xuan Service & Shipping Co Ltd ","Vietnam","Vietnam","20140314","","135, Diem Dien, Thai Thuy District, Thai Binh Province, Vietnam.",""
"4102241","ZHOUSHAN JINYU SHPG DEVT CO","China, People's Republic of","+86 580 805 2265","","","","Zhoushan Jinyu Shipping Development Co Ltd","China, People's Republic of","China, People's Republic of","20111017","","7, Ligang Beilu, Ligangzhen, Dinghai Qu, Zhoushan, Zhejiang, 316032, China.","+86 580 805 2011"
"4104437","PASIFIK GEMI ISLETMECILIGI","Turkey","+90 216 554 1400","","safety@pasifikgemi.com","","Pasifik Gemi Isletmeciligi ve Ticaret AS ","Turkey","Turkey","20121226","","Ord Prof Fahrettin Kerim Gokay Caddesi 18/2, Altunizade Mah, Uskudar, 34662 Istanbul, Turkey.","+90 216 554 1414"
"4106141","SHENZHEN HAIFA SHIPPING CO LTD","China, People's Republic of","+86 755 2682 1829","","","","Shenzhen Haifa Shipping Co Ltd ","China, People's Republic of","China, People's Republic of","20130409","","Room 501, Building 1, Finance Center, 22, Taizi Lu, Shekou Industrial Zone, Nanshan Qu, Shenzhen, Guangdong, 518067, China.","+86 755 2682 3173"
"4118232","RICKMERS SHIPMANAGEMENT-SNG","Singapore","+65 6372 6300","","mail@singapore.rickmers.sg","www.rickmers.de","Rickmers Shipmanagement (Singapore) Pte Ltd","Singapore","Germany","20130606","","42-01, AXA Tower, 8, Shenton Way, Singapore 068811","+65 6372 6301"
"4119381","NINGBO BEILUN SHIPPING CO LTD","China, People's Republic of","+86 574 2769 7263","","nbblcwgs@163.com","www.nbmarine.com","Ningbo Beilun Shipping Co Ltd ","China, People's Republic of","China, People's Republic of","20130528","","91, Honglian Xiaodaotou, Beilun Qu, Ningbo, Zhejiang, 315801, China.","+86 574 8688 2954"
"4125883","ZHEJIANG QINFENG SHIPPING","China, People's Republic of","+86 576 8855 9777","","fxy@qfshipping.com","www.qfshipping.com","Zhejiang Qinfeng Shipping Co Ltd ","China, People's Republic of","China, People's Republic of","20131114","","698, Donghai Dadao, Jiaojiang Qu, Taizhou, Zhejiang, 318000, China.","+86 576 8855 9011"
"4128636","TAIZHOU JINTAI SHIPPING CO LTD","China, People's Republic of","+86 523 8636 3313","","","","Taizhou Jintai Shipping Co Ltd ","China, People's Republic of","China, People's Republic of","20071228","","550-6, Hailing Nanlu, Hailing Qu, Taizhou, Jiangsu, 225300, China.","+86 523 8636 3313"
"4132841","MEKONG PETROLEUM TRANSPORT JSC","Vietnam","+84 710 916868","","mekongtrans@vnn.vn","www.mekongtrans.com.vn","Mekong Petroleum Transport JSC ","Vietnam","Vietnam","20140331","","56, Road No 8, Cai Rang District, Can Tho City, Vietnam.","+84 710 916688"
"4138796","GOLD GLORY INTL SHIP MGMT LTD","Hong Kong, China","","","","","Gold Glory International Ship Management Ltd","Hong Kong, China","","20111025","","Unit 2401A, 24th Floor, Park-In Commercial Centre, 56, Dundas Street, Yau Ma Tei, Kowloon, Hong Kong, China.",""
"4143598","CHENZHOU SHIP INDUSTRY GROUP","China, People's Republic of","+86 580 886 2525","","czjt07@yahoo.com.cn","www.chenzhougroup.cn","Chenzhou Ship Industry Group Co Ltd ","China, People's Republic of","China, People's Republic of","20130716","","Huiminqiao, Lincheng Jiedao, Dinghai Qu, Zhoushan, Zhejiang, China.","+86 580 886 2518"
"4143624","HAI NAM DEVELOPMENT & INVEST","Vietnam","+84 31 387 3216","","hainamjsc@vnn.vn","www.hainamshipping.com","Hai Nam Development & Investment JSC (Cong Ty Co Phan Dau Tu Va Phat Trien Hai Nam) ","Vietnam","Vietnam","20130909","","66, Tran Quoc Toan, Nui Deo, Thuy Nguyen District, Haiphong City, Vietnam.","+84 31 357 3283"
"4152389","NAM SON SHIPPING INDUSTRY","Vietnam","+84 31 3973666","","","","Nam Son Shipping Industry Development JSC","Vietnam","Vietnam","20101210","","8, Da Nang, Nui Deo, Thuy Nguyen District, Haiphong City, Vietnam.","+84 31 3874169"
"4152392","POMORSKI SAOBRACAJ HERCEG NOVI","Montenegro","+382 31 673522","","pomorski@t-com.me","","DOO 'Pomorski Saobracaj' Herceg Novi ","Montenegro","Montenegro","20140814","","Kamenari bb, 85343 Bijela, Montenegro.","+382 31 673558"
"4153047","VU HOANG TRANSPORT CO LTD","Vietnam","+84 31 384 1742","","","","Vu Hoang Transport Co Ltd ","Vietnam","","20110824","","9, Ben Binh, Hong Bang District, Haiphong City, Vietnam.","+84 31 356 9183"
"4153719","TRUNG DUC COMMERCIAL SERVICE","Vietnam","+84 36 385 3967","","","","Trung Duc Commercial Service JSC ","Vietnam","","20140113","","347, Zone 6, Diem Dien, Thai Thuy District, Thai Binh Province, Vietnam.","+84 36 385 3967"
"4154151","GULF RESOURCE MANAGEMENT INC","United States of America","+1 337 364 6788","","","www.gulf-resource.com","Gulf Resource Management Inc ","United States of America","United States of America","20121231","","1606, Jane Street, New Iberia LA 70563-1415, USA.","+1 337 364 6708"
"4162323","BANK OF COMMUNICATIONS","China, People's Republic of","+86 21 5355 9858","","","www.bocommleasing.com","Bank of Communications Financial Leasing Co Ltd","China, People's Republic of","China, People's Republic of","20140807","","6th Floor, Building 3, 80, Songtao Lu, Pudong Xinqu, Shanghai, 201203, China.","+86 21 6278 8317"
"4177025","OCEAN VICTORY INT'L HOLDINGS","Hong Kong, China","+86 411 3980 6722","","","","Ocean Victory Int'l Holdings Ltd ","Hong Kong, China","Hong Kong, China","20140530","","Room 1701, 17th Floor, Henan Building, 90, Jaffe Road, Wan Chai, Hong Kong, China.","+86 411 3980 6728"
"4181725","PHIL NATIONAL LINES INC","Philippines","+63 2 896 7631","","cmc@cargomarine.com.ph","www.cargomarine.com.ph","Phil National Lines Inc ","Philippines","Philippines","20130411","","62A, Bonifacio Street, Makati City, 1208 Manila, Philippines.","+63 2 890 5958"
"4183063","TRUONG MINH TRANSPORT JSC","Vietnam","+84 36 385 3313","","","","Truong Minh Transport JSC ","Vietnam","","20131001","","Zone 1, Diem Dien, Thai Thuy District, Thai Binh Province, Vietnam.","+84 36 385 3313"
"4185277","NAM MIEN TRUNG TRANSPORT","Vietnam","+84 31 387 6969","","","","Nam Mien Trung Transport & Trading JSC ","Vietnam","","20111115","","6, Mac Thien Phuc, Kien an District, Haiphong City, Vietnam.","+84 31 387 6969"
"4199262","HOANG CHIEN TRADING SERVICE","Vietnam","+84 31 357 3405","","","","Hoang Chien Trading Service & Transport JSC","Vietnam","","20140113","","An Lu, Thuy Nguyen District, Haiphong City, Vietnam.","+84 31 357 3405"
"4199421","TRUNG THANH SHIPPING SERVICE","Vietnam","+84 31 375 9267","","","","Trung Thanh Shipping Service JSC ","Vietnam","","20131122","","179, Doan Xa I, Hai An District, Haiphong City, Vietnam.","+84 31 375 9266"
"4199934","KHANH CUONG JSC","Vietnam","+84 36 385 3860","","","","Khanh Cuong JSC ","Vietnam","","20131213","","Zone 6, Diem Dien, Thai Thuy District, Thai Binh Province, Vietnam.","+84 36 385 3860"
"4199948","THANH CONG SHIPPING CO LTD","Vietnam","+84 4 3857 45418","","","","Thanh Cong Shipping Co Ltd ","Vietnam","","20131212","","Hai Hau District, Nam Dinh Province, Vietnam.","+84 4 3857 45421"
"4200629","PHU LOC SHIPPING & TRADING JSC","Vietnam","+84 36 3710856","","","","Phu Loc Shipping & Trading JSC ","Vietnam","","20140225","","Zone 5, Diem Dien, Thai Thuy District, Thai Binh Province, Vietnam.","+84 36 3710856"
"4200646","VUONG THANH VINH SHIPPING JSC","Vietnam","+84 36 3853030","","","","Vuong Thanh Vinh Shipping JSC ","Vietnam","","20140225","","Zone 7, Diem Dien, Thai Thuy District, Thai Binh Province, Vietnam.","+84 36 3853030"
"4201074","SESA STERLITE LTD","India","+91 832 229 8357","","","","Sesa Sterlite Ltd ","India","India","20140129","","Care of Sesa Goa Ltd , Sirsaim, Tivim, Bardez, Goa, 403502, India.","+91 832 299 8439"
"4201176","THANH DAT SHIPPING CO LTD","Vietnam","+84 94 517 2077","","","","Thanh Dat Shipping Co Ltd ","Vietnam","","20140129","","12, Tan Quy, Tan Phu District, Ho Chi Minh City, Vietnam.","+84 8 3821 8878"
"4201233","SINGAPORE GOVT POLICE COAST","Singapore","","","","www.spf.gov.sg","Government of The Republic of Singapore (Singapore Police Coast Guard)","Singapore","Singapore","20140430","","11, Brani Way, Singapore 098658","+65 6 376 7331"
"4203022","HAI MINH SHIPPING SERV CO LTD","Vietnam","+84 36 385 3013","","","","Hai Minh Shipping Service Co Ltd ","Vietnam","","20140314","","Zone 1, Diem Dien, Thai Thuy District, Thai Binh Province, Vietnam.","+84 36 385 3013"
"4204153","PHU DAT TRANSPORT & TRADING CO","Vietnam","+84 350 388 3584","","","","Phu Dat Transport & Trading Co Ltd ","Vietnam","","20140418","","Cat Thanh, Truc Ninh District, Nam Dinh Province, Vietnam.",""
"4204167","THUAN AN SHIPPING JSC","Vietnam","+84 36 371 3425","","","","Thuan An Shipping JSC ","Vietnam","","20140905","","Zone 6, Diem Dien, Thai Thuy District, Thai Binh Province, Vietnam.","+84 36 371 2069"
"4204286","THANH PHAT SHIPPING AGENCY","Vietnam","","","","","Thanh Phat Shipping Agency Trading JSC ","Vietnam","","20140425","","Room 8, B-Block, Trung Luc, Hai An District, Haiphong City, Vietnam.",""
"4204520","DONG NAM A PETROLEUM PSC","Vietnam","+84 4 3941 3981","","","","Dong Nam A Petroleum PSC ","Vietnam","","20140502","","Nguyen Thuong Hien, Hoan Kiem District, Hanoi City, Vietnam.","+84 4 3941 3980"
"4204547","SAI GON SHIPBUIDING INDUSTRY","Vietnam","+84 8 3850 6341","","info@ssic.com.vn","www.ssic.com.vn","Sai Gon Shipbuiding Industry Co ","Vietnam","","20140502","","Pham The Hien, District 8, Ho Chi Minh City, Vietnam.","+84 8 3850 4914"
"4204808","HONG PHUC SEAING TRANSPORT SVC","Vietnam","+84 31 364 2656","","","","Hong Phuc Seaing Transport Service Trading Co Ltd","Vietnam","","20140509","","An Lu, Thuy Nguyen District, Haiphong City, Vietnam.","+84 31 325 0426"
"4204856","HUNG HAU RIVER SEA TRANSPORT","Vietnam","+84 350 387 6245","","","","Hung Hau River Sea Transport JSC ","Vietnam","","20140512","","Hai Hoa, Hai Hau District, Nam Dinh Province, Vietnam.","+84 350 387 6245"
"4204944","TRUNG THANG SERVICE JSC","Vietnam","+84 36 371 0486","","","","Trung Thang Service JSC ","Vietnam","","20140515","","Diem Dien, Thai Thuy District, Thai Binh Province, Vietnam.","+84 36 371 0486"
"4204975","PHUONG DONG A & A CO LTD","Vietnam","+84 30 389 9336","","","","Phuong Dong A & A Co Ltd ","Vietnam","","20140515","","Bich Dao, Ninh Binh City, Vietnam.",""
"4205081","JIANGSU XIANGTAI MARINE CO LTD","China, People's Republic of","+86 523 8687 9090","","xiangtaihaiyun@163.com","","Jiangsu Xiangtai Marine Co Ltd ","China, People's Republic of","China, People's Republic of","20140521","","Rooms 212-213, 719-1 Building, Jiangzhou Beilu, Hailing Qu, Taizhou, Jiangsu, China.","+86 523 8687 9113"
"4206530","ZHEJIANG CHANGCHANG SHIPPING","China, People's Republic of","+86 576 8886 1690","","","","Zhejiang Changchang Shipping Co Ltd ","China, People's Republic of","","20140718","","Room 22A, Taizhou Building, 18, Aihua Lu, Jiaojiang Qu, Taizhou, Zhejiang, China.",""
"5011009","AULAC CORP","Vietnam","+84 8 3820 0441","","aulac-asc@aulac.com.vn","www.aulac.com.vn","Aulac Corp ","Vietnam","Vietnam","20140718","","Ward 8, 92B, Tran Quoc Toan, District 3, Ho Chi Minh City, Vietnam.","+84 8 3820 0440"
"5012497","GENEQ CORP","Japan","+81 3 5777 2405","","tokyo@geneq.co.jp","www.geneq.co.jp","Geneq Corp (KK Geneq) ","Japan","Japan","20140204","","2nd Floor, Shinbashi Kono Building, 4-1, Shinbashi 5-chome, Minato-ku, Tokyo-to, 103-0016, Japan.","+81 3 5777 2406"
"5013708","GERDES BEREEDERUNGS","Germany","+49 5932 72820","","info@reederei-gerdes.de","www.reederei-gerdes.de","Gerdes Bereederungs und Verwaltungs GmbH","Germany","Germany","20140811","","Hermannstrasse 1A, 49733 Haren (Ems), Germany.","+49 5932 728220"
"5021552","LOGINDO SAMUDRAMAKMUR TBK PT","Indonesia","+62 21 6471 3088","","edlog@logindo.com","www.logindo.co.id","PT Logindo Samudramakmur Tbk ","Indonesia","Indonesia","20140612","","Graha Corner Stone, Jalan Rajawali Sel 1, Jakarta, 10720, Indonesia.","+62 21 6471 3220"
"5022388","FINNLINES SHIP MANAGEMENT AB","Sweden","+46 40 176840","","seapersonnelswe@finnlines.com","www.finnlines.fi","Finnlines Ship Management AB ","Sweden","Finland","20120621","","Grimsbygatan 8, SE-211 20 Malmo, Sweden.","+46 40 176841"
"5025087","STENA BULK LLC","United States of America","+1 713 874 5960","","infous@stenabulk.com","www.stenabulk.com","Stena Bulk LLC ","United States of America","Sweden","20121017","","Suite 760, 2727, Allen Parkway, Houston TX 77019-2115, USA.","+1 713 874 5995"
"5026381","GENERAL MARITIME MANAGEMENT","United States of America","+1 212 763 5625","","operations@gmmllc.us","www.generalmaritimecorp.com","General Maritime Management LLC ","United States of America","Greece","20140529","","299, Park Avenue, New York NY 10171-0002, USA.","+1 212 763 5603"
"5042791","GEOSHIPS SRL","Italy","+39 096 622265","","info@geoships.com","","Geoships Srl ","Italy","Italy","20131107","","Via Interna Marina 69, 88900 Crotone KR, Italy.","+39 096 266 5817"
"5043331","TBS SRL","Italy","+39 081 420 1335","","shiptbs@libero.it","","TBS Srl ","Italy","Italy","20090416","","Vico II San Nicola alla Dogana 9, 80133 Naples NA, Italy.","+39 081 542 2797"
"5043861","DL EAST SHIPPING CO LTD-DALIAN","China, People's Republic of","+86 411 8270 8844","","","","DL East Shipping Co Ltd ","China, People's Republic of","China, People's Republic of","20131022","","Room 902, 48-3, Luxun Lu, Zhongshan Qu, Dalian, Liaoning, China.","+86 411 8271 3422"
"5045632","KORKYRA SHIPPING LTD","Croatia","+385 20 716392","","korkyra.shipping@du.t-com.hr","www.korship.com","Korkyra Shipping Ltd ","Croatia","Croatia","20120607","","ACI Marina, setaliste Frana Krsinica 4, HR-20260 Korcula, Croatia.","+385 20 716395"
"5046644","TRADEX SHIPPING CO PVT LTD","India","+91 44 2434 6778","","venkat@tradexshipping.com","www.tradexshipping.com","Tradex Shipping Co Pvt Ltd (Tradex India)","India","India","20120409","","24, Bagavantham Street, Thygaravanagar, Chennai, 600017, India.","+91 44 2435 1597"
"5053805","SIM DENIZCILIK","Turkey","+90 262 724 8530","","sim-den@superonline.com","","Sim Denizcilik Sanayi ve Ticaret AS ","Turkey","Turkey","20110926","","Kisim D-4016, Organize Sanayi Bolgesi 1, 41455 Dilovasi Turkey.","+90 262 724 8582"
"5060206","ABS MARINE SERVICES PVT LTD","India","+91 44 4291 4141","","technical@absmarine.com","www.absmarine.com","ABS Marine Services Pvt Ltd ","India","India","20130516","","15, Valliammal Road, Vepery, Chennai, 600007, India.","+91 44 4291 4145"
"5061093","DERNA CARRIERS SA","Greece","+30 210 898 0365","","operations@derna-carriers.gr","","Derna Carriers SA ","Panama","Greece","20120622","","8, Iatrou A Liougka Street, Glyfada, 166 75 Athens, Greece.","+30 210 968 1354"
"5061734","JIUJIANG ZHENXING SHIPPING CO","China, People's Republic of","+86 21 6275 3463","","","","Jiujiang Zhenxing Shipping Co ","China, People's Republic of","China, People's Republic of","20090825","","15, Wuchengzhen, Yongxiu Xian, Jiangxi, China.","+86 21 6275 3463"
"5064212","MARCONSULT SCHIFFAHRT GMBH","Germany","+49 40 380 2040","","charter@mc-schiffahrt.de","www.mc-schiffahrt.de","MarConsult Schiffahrt (GmbH & Co) KG ","Germany","Germany","20110908","","Halle K5, Gasstrasse 4B, 22761 Hamburg, Germany.","+49 40 3802 0410"
"5066956","AOXING SHIP MANAGEMENT","China, People's Republic of","+86 21 6104 8691","8533033","marine@sinochem.com","www.sinochemintl.com","Aoxing Ship Management (Shanghai) Ltd ","China, People's Republic of","China, People's Republic of","20131210","","26th Floor, Jinmao Tower, 88, Shiji Dadao, Pudong Xinqu, Shanghai, 200121, China.","+86 21 5047 0836"
"5070349","BELCHEM SINGAPORE PTE LTD","Singapore","+65 6795 1661","","mail@belchem.com.sg","www.belships.com.sg","Belchem Singapore Pte Ltd ","Singapore","Norway","20080228","","09-104 Trade Hub 21, 18, Boon Lay Way Singapore 609966","+65 6795 6116"
"5073238","LEONHARDT & BLUMBERG REEDEREI","Germany","+49 40 361460","","info@leonhardt-blumberg.com","www.leonhardt-blumberg.com","Leonhardt & Blumberg Reederei GmbH & Co KG","Germany","Germany","20140922","","Neumuehlen 13, 22763 Hamburg, Germany.","+49 40 3614 6123"
"5074077","WILSON EUROCARRIERS AS","Norway","+47 55 30 82 00","","eurocarriers@wilsonship.no","www.wilsonship.no","Wilson EuroCarriers AS ","Norway","Norway","20120807","","Bradbenken 1, 5003 Bergen, Norway.",""
"5075588","YANTAI PINGYANG SHIPPING CO","China, People's Republic of","+86 535 608 7666","","pingyangshipping@163.com","","Yantai Pingyang Shipping Co Ltd ","China, People's Republic of","China, People's Republic of","20121108","","Room 1001, Unit 1,Tower 1, Jinri Huayuan, 439, Shengli Lu, Zhifu Qu, Yantai, Shandong, 264000, China.","+86 535 608 6888"
"5076997","HOEGH AUTOLINERS AS","Norway","+47 21 03 90 00","","autoliners@hoegh.com","www.hoeghautoliners.com","Hoegh Autoliners AS ","Norway","Norway","20130304","","Drammensveien 134, 0277 Oslo, Norway.","+47 21 03 90 12"
"5077037","SUNWOO CORP","Korea, South","+82 31 946 3967","","sunwoo@swfishery.com","www.swfishery.com","Sunwoo Corp ","Korea, South","Korea, South","20121010","","624-5, Dayul-ri, Gyoha-dong, Paju, Gyeonggi-do, 413-070, South Korea.","+82 31 946 3965"
"5082987","QUANG THINH CO LTD","Vietnam","","","","","Quang Thinh Co Ltd ","Vietnam","Vietnam","20100210","","An Lu, Thuy Nguyen District, Haiphong City, Vietnam.",""
"5086375","QUANG ANH TRADING & SHPG CO","Vietnam","+84 37 910326","","","","Quang Anh Trading & Shipping Co ","Vietnam","Vietnam","20140515","","Quang Hung, Thanh Hoa City, Vietnam.","+84 37 910326"
"5092008","SHANTOU DIYUAN MARITIME","China, People's Republic of","+86 754 8852 9000","","diyuan@diyuan.com","www.diyuan.com","Shantou Diyuan Maritime Transport Co Ltd","China, People's Republic of","China, People's Republic of","20131028","","8th Floor, MSA Building, 47, Haibin Lu, Jinping Qu, Shantou, Guangdong, China.","+86 754 8852 5000"
"5094874","ZHOUSHAN HEFENG SHIPPING CO","China, People's Republic of","+86 580 382 1212","","zjseahead@yahoo.com.cn","","Zhoushan Hefeng Shipping Co Ltd ","China, People's Republic of","China, People's Republic of","20130418","","76, Lingxiu Jie, Donggang Jiedao, Putuo Qu, Zhoushan, Zhejiang, China.","+86 580 382 1010"
"5098112","ZHEJIANG DAISHAN HONGCHENG","China, People's Republic of","+86 580 473 6308","","wx821229@sohu.com","","Zhejiang Daishan Hongcheng Shipping Co Ltd","China, People's Republic of","China, People's Republic of","20130319","","3rd Floor, 125, Lanxiu Lu, Xiushanxiang, Daishan Xian, Zhejiang, 316261, China.","+86 580 473 6308"
"5099005","UNITED SHIPPERS LTD","India","+91 22 6756 8400","","inquiry@unitedshippers.com","www.unitedshippers.com","United Shippers Ltd ","India","India","20130116","","3rd Floor, Prospects Chambers, Dr Dadabhai Naoroji Marg, Fort, Mumbai, 400001, India.","+91 22 6756 8496"
"5109736","SHANGHAI QIANGHUI SHIPPING CO","China, People's Republic of","","","","","Shanghai Qianghui Shipping Co Ltd ","China, People's Republic of","China, People's Republic of","20130418","","540, Tongbei Lu, Yangpu Qu, Shanghai, China.",""
"5111462","MT MARITIME PTE LTD","Singapore","+65 6221 2255","","chartering@mtmm.sg","www.mtmaritime.com","MT Maritime Pte Ltd ","Singapore","United States of America","20140529","","29-02, 78, Shenton Way, Singapore 079120","+65 6221 2277"
"5113282","SHANGHAI CHANGHANG SHIPPING","China, People's Republic of","+86 21 5835 6228","","info@scsco.com.cn","www.scsco.com.cn","Shanghai Changhang Shipping Co Ltd ","China, People's Republic of","China, People's Republic of","20121101","","10th Floor, Changhang Building, 800, Zhangyang Lu, Pudong Xinqu, Shanghai, 200122, China.","+86 21 5835 6233"
"5122161","MAERSK SHIP MANAGEMENT BV","Netherlands","+31 10 712 7500","","nlashiptec2@maersk.com","www.maerskshipmanagement.com","Maersk Ship Management BV ","Netherlands","Denmark","20130930","","Boompjes 40, 3011 XB Rotterdam, Netherlands.","+31 10 712 7029"
"5122511","HOANG LOC SHIPPING JSC","Vietnam","+84 36 713322","","","","Hoang Loc Shipping JSC ","Vietnam","Vietnam","20130405","","Diem Dien, Thai Thuy District, Thai Binh Province, Vietnam.","+84 36 853343"
"5132596","COLUMBIA MARINE SERVICES LTD","Hong Kong, China","+852 2547 6228","","","","Columbia Marine Services Ltd ","Hong Kong, China","Hong Kong, China","20100909","","Room 2213, Hong Kong Plaza, 188, Connaught Road West, Sheung Wan, Hong Kong, China.","+852 2964 0153"
"5140755","ROMEO PAPA LLC","United States of America","+985 857 9275","","","www.romeopapaboats.com","Romeo Papa LLC ","United States of America","United States of America","20140929","","313, Safety Road, Houma LA 70363-5462, USA.","+985 857 9257"
"5147647","GSS PLANT LTD","United Kingdom","+44 1436 821277","","info@gssplant.co.uk","www.gssplant.co.uk","Gareloch Support Services (Plant) Ltd (GSS (Plant) Ltd)","United Kingdom","United Kingdom","20140818","","Rhu Marina, Gareloch Road, Rhu, Helensburgh, G84 8LH, United Kingdom.","+44 1436 821288"
"5148424","WILHELMSEN SHIP MGMT KOREA LTD","Korea, South","+82 51 711 0720","","","www.wilhelmsen.com","Wilhelmsen Ship Management (Korea) Ltd ","Korea, South","Norway","20140811","","10th Floor, Marine Center Building, 52, Chungjang-daero 9beon-gil, Jung-gu, Busan, 600-715, South Korea.","+82 51 711 0711"
"5152996","SHANGHAI MARUKICHI SHIP MGMT","China, People's Republic of","+86 21 6855 0089","","operation@marukichi.com","www.marukichi.com","Shanghai Marukichi Ship Management Co Ltd","China, People's Republic of","Japan","20131011","","Room 1105, Dragon Pearl Complex, 2123, Pudong Dadao, Pudong Xinqu, Shanghai, China.","+86 21 6855 2013"
"5159826","TONGMAO SHIP MANAGEMENT INC","China, People's Republic of","+86 580 369 6308","","tongmao2003@vip.163.com","","Tongmao Ship Management Inc ","Panama","China, People's Republic of","20111020","","Room 902, Flat 16, 128, Haizhou Lu, Donggang Jiedao, Putuo Qu, Zhoushan, Zhejiang, 316100, China.","+86 580 369 6318"
"5169748","FAIRSTAR HEAVY TRANSPORT NV","Netherlands","+31 10 403 5333","","fairstar@fairstar.com","www.fairstar.com","Fairstar Heavy Transport NV ","Netherlands","Netherlands","20140101","","20th Floor, Weena 690, 3012 CN Rotterdam, Netherlands.","+31 10 403 5344"
"5170493","P&R WATER TAXI LTD","United States of America","+1 808 526 9311","","info@pnrwatertaxi.com","pnrwatertaxi.com","P & R Water Taxi Ltd ","United States of America","United States of America","20130708","","123, Ahui Street, Honolulu HI 96813-5509, USA.","+1 808 526 9811"
"5178701","TAMPA TUGS LLC","United States of America","+1 813 242 6500","","operations@marinetowingtampa.com","www.marinetowingtampa.com","Tampa Tugs LLC ","United States of America","United States of America","20121018","","908, S 20th Street, Tampa FL 33605-6306, USA.","+1 813 242 4525"
"5183066","INDONESIAN FORTUNE LLOYD","Indonesia","+62 21 430 4723","","csjkt@ifl.co.id","www.ifl.co.id","PT Indonesian Fortune Lloyd (IFL) ","Indonesia","Indonesia","20140120","","Jalan Laksamana Yos Sudarso 68C, Kel Kebon Bawang, Jakarta, 14320, Indonesia.","+62 21 430 4721"
"5187789","NINGBO MARINE CO LTD","China, People's Republic of","+86 574 8735 6271","","shihx@nbmc.com.cn","www.nbmc.com.cn","Ningbo Marine Co Ltd (NMCL) ","China, People's Republic of","China, People's Republic of","20130905","","568, Zhongma Lu, Jiangbei Qu, Ningbo, Zhejiang, China.","+86 574 8735 5051"
"5191123","YUAN DA SHIPPING CO LTD-YANTAI","China, People's Republic of","+86 535 211 2001","","ydship@163.com","","Yuan Da Shipping Co Ltd ","China, People's Republic of","China, People's Republic of","20120612","","186, Nan Dajie, Zhifu Qu, Yantai, Shandong, China.","+86 535 622 8109"
"5200652","UBEM NV","Belgium","+32 3 829 9302","","","","UBEM NV ","Belgium","United Kingdom","20090702","","Sneeuwbeslaan 14, 2610 Antwerp, Belgium.","+32 3 829 9333"
"5204624","KEI-RSOS MARITIME LTD","India","+91 884 230 6090","","kr_kkd@yahoo.com","","Kei-Rsos Maritime Ltd ","India","India","20120823","","1-138, Ramanayyapeta, near Acchampeta Junction, ADB Street, Kakinada, Dist East Godavari, Andhra Pradesh, 533005, India.","+91 884 230 7091"
"5206682","WALVIS NIGERIA LTD","Nigeria","+234 1 269 1347","","","","Walvis Nigeria Ltd ","Nigeria","Nigeria","20090609","","4A, Lees Road, Ikoyi, Lagos, Nigeria.","+234 1 269 2476"
"5214223","HYPERBARIC CONSULT APS","Denmark","+45 70 23 16 47","","info@hbc-tek.dk","www.hbc-tec.dk","Hyperbaric Consult ApS ","Denmark","Denmark","20140909","","1st Floor, Havnen 5, 3250 Gilleleje, Denmark.","+45 70 23 06 47"
"5227357","PHU AN RIVER SEA TRANSPORT","Vietnam","+84 350 388 3676","","","","Phu An River Sea Transport Co-operative (Htx Van Tai Song Bien Phu An)","Vietnam","Vietnam","20100527","","Cat Thanh, Truc Ninh District, Nam Dinh Province, Vietnam.","+84 350 388 3676"
"5227374","PHU DAT RIVER SEA TRANSPORT CO","Vietnam","+84 31 874304","","","","Phu Dat River Sea Transport Co Ltd (Cong Ty Tnhh Van Tai Song Bien Phu Dat) ","Vietnam","Vietnam","20140113","","An Lu, Thuy Nguyen District, Haiphong City, Vietnam.","+84 31 874304"
"5227462","PHU LAM","Vietnam","+84 31 387 4324","","","","Phu Lam Co Ltd (Cong Ty Trach Nhiem Huu Han Phu Lam)","Vietnam","Vietnam","20101027","","An Lu, Thuy Nguyen District, Haiphong City, Vietnam.","+84 31 364 9092"
"5227520","TUAN HUNG TRANSPORT","Vietnam","+84 37 793583","","","","Tuan Hung Transport Co (Cong Ty Van Tai Tuan Hung)","Vietnam","Vietnam","20060522","","Quang Tien, Sam Son City, Thanh Hoa Province, Vietnam.",""
"5227666","THANH PHONG SHIPPING","Vietnam","+84 31 387 4359","","","","Thanh Phong Shipping Co Ltd (Cong Ty Tnhh Van Tai Bien Thanh Phong)","Vietnam","Vietnam","20101025","","An Lu, Thuy Nguyen District, Haiphong City, Vietnam.","+84 31 387 4359"
"5227741","TRUONG AN TRANSPORT & TRADING","Vietnam","+84 91 324 5609","","","","Truong An Transport & Trading Co Ltd (Cong Ty Tnhh Van Tai Va Thuong Mai Truong An) ","Vietnam","Vietnam","20101110","","Cat Thanh, Truc Ninh District, Nam Dinh Province, Vietnam.","+84 350 388 3929"
"5227754","TRUONG AN PHU TRADING","Vietnam","+84 31 387 4387","","","","Truong An Phu Trading & Transport Co Ltd (Cong Ty Tnhh Thuong Mai Va Van Tai Truong An Phu) ","Vietnam","Vietnam","20101208","","An Lu, Thuy Nguyen District, Haiphong City, Vietnam.",""
"5228001","MINH TUAN PTE WATERWAY TRANS","Vietnam","+84 31 859018","","","","Minh Tuan Private Waterway Transport Enterprise (Xi Nghiep Tu Nhan Van Tai Thuy Minh Tuan) ","Vietnam","Vietnam","20100609","","32, Quang Trung, Hong Bang District, Haiphong City, Vietnam.",""
"5229248","CONG THANH COMMERCIAL SERVICE","Vietnam","+84 36 853233","","","","Cong Thanh Commercial Service JSC (Cong Ty Co Phan Thuong Mai Dich Vu Cong Thanh) ","Vietnam","Vietnam","20140213","","Diem Dien, Thai Thuy District, Thai Binh Province, Vietnam.","+84 36 753469"
"5230529","FONNES SHIPPING AS","Norway","+47 56 16 82 40","","post@fonnesshipping.no","www.fonnesshipping.no","Fonnes Shipping AS ","Norway","Norway","20110627","","Postboks 3, 5953 Fonnes, Norway.","+47 56 16 82 41"
"5239624","NANTONG KANGHAI SHPG CO LTD","China, People's Republic of","+86 513 8505 7258","","khcw@ntkhcw.com.cn","www.ntkhcw.com.cn","Nantong Kanghai Shipping Co Ltd ","China, People's Republic of","China, People's Republic of","20130905","","5th Floor, Block A, Huatai Building, 82, Haoxi Lu, Chongchuan Qu, Nantong, Jiangsu, 226001, China.","+86 513 8505 7253"
"5239916","OFFSHORE OIL SERVICES INC","United States of America","+1 979 265 3300","","","www.offshoreoil.com","Offshore Oil Services Inc ","United States of America","United States of America","20130422","","1608, Old Angleton Road, Clute TX 77531-3512, USA.","+1 979 265 3307"
"5241483","TUAN THANH TRANSPORT TRADING","Vietnam","+84 91 324 5610","","","","Tuan Thanh Transport Trading Co Ltd ","Vietnam","","20060629","","An Lu, Thuy Nguyen District, Haiphong City, Vietnam.",""
"5243171","VAN OORD SHIP MANAGEMENT BV","Netherlands","+31 88 826 0000","","info@vanoord.com","www.vanoord.com","Van Oord Ship Management BV ","Netherlands","Netherlands","20130704","","Schaardijk 211, 3063 NH Rotterdam, Netherlands.","+31 88 526 5010"
"5245279","TRUNG HAI CO LTD","Vietnam","+84 36 371 1229","","","","Trung Hai Co Ltd ","Vietnam","","20110324","","Hamlet 3, Thuy Ha, Thai Thuy District, Thai Binh Province, Vietnam.","+84 36 371 2235"
"5251944","STAR REEFERS POLAND SP Z OO","Poland","+48 587 647 620","","info@star-reefers.com","www.star-reefers.com","Star Reefers Poland Sp z oo ","Poland","Cayman Islands","20120810","","ul Tadeusza Wendy 15, 81-341 Gdynia, Poland.","+48 587 647 621"
"5253146","HOANG PHAT WATERWAY TRANSPORT","Vietnam","+84 912 253558","","","","Hoang Phat Waterway Transport JSC ","Vietnam","Vietnam","20130405","","143, Hang Cap, Nam Dinh City, Vietnam.",""
"5266703","HANJIN SHIP MANAGEMENT CO LTD","Korea, South","+82 51 460 8008","","mail@hanjinsm.com","www.hanjinsm.com","Hanjin Ship Management Co Ltd ","Korea, South","Korea, South","20140903","","46, Chungjang-daero 9beon-gil, Jung-gu, Busan, 600-755, South Korea.","+82 51 464 6256"
"5267471","STRELETS CO LTD","Russia","+7 401 271 6010","","strelets@kanet.ru","","Strelets Co Ltd (OOO 'Strelets') ","Russia","Russia","20090619","","Office 402, ul Shmidta 43, Murmansk, 183788, Russia.","+7 401 371 6010"
"5271200","SHENZHEN SINOCEAN MARINE","China, People's Republic of","+86 755 8612 2888","","marketing@sinocean.com","www.sinocean.com","Shenzhen Sinocean Marine Co Ltd ","China, People's Republic of","China, People's Republic of","20111102","","Rooms 701-710, Shekou Port Building, 3, Gangwan Sanlu, Shekou Industrial Zone, Nanshan Qu, Shenzhen, Guangdong, China.","+86 755 8612 2300"
"5271403","HARREN & PARTNER SHIP","Germany","+49 421 468 6100","","info@hp-shipping.de","www.harren-partner.de","Harren & Partner Ship Management GmbH & Co KG","Germany","Germany","20131028","","Hermann-Hollerith-Strasse 10, 28355 Bremen, Germany.","+49 421 468 6101"
"5281705","XIANGSHAN XING NING SHIPPING","China, People's Republic of","","","","","Xiangshan Xing Ning Shipping Co Ltd ","China, People's Republic of","China, People's Republic of","20090401","","China.",""
"5283471","DONGIL SHIPPING CO LTD","Korea, South","+82 51 200 1233","","dongil@dngilshipping.co.kr","","Dongil Shipping Co Ltd ","Korea, South","Korea, South","20091214","","391-1, Gamcheon 1-dong, Saha-gu, Busan, 604-070, South Korea.","+82 51 200 1255"
"5286480","QINZHOU GUIQIN SHIPPING GROUP","China, People's Republic of","+86 777 281 7999","","gqcw0777@vip.163.com","","Qinzhou Guiqin Shipping Group Co Ltd ","China, People's Republic of","China, People's Republic of","20120515","","Rooms 601 & 602, Unit 1, Guangsha Garden, Qinbei Qu, Qinzhou, Guangxi, China.","+86 777 283 6493"
"5292435","SEATRANS AS","Norway","+47 55 92 32 00","","mail@seatrans.no","www.seatrans.no","Seatrans AS ","Norway","Norway","20110819","","Wernersholmvegen 5, 5232 Paradis, Norway.","+47 55 91 22 41"
"5299962","P&O FERRIES HOLDINGS LTD","United Kingdom","+44 1304 863217","","customer.services@poferries.com","www.poferries.com","P&O Ferries Holdings Ltd ","United Kingdom","United Arab Emirates","20120223","","Channel House, Channel View Road, Dover, Kent, CT17 9TJ, United Kingdom.","+44 1304 863449"
"5301655","PEMBORONG BUMIJAYA SDN BHD","Malaysia","+60 89 774726","","","","Pemborong Bumijaya Sdn Bhd ","Malaysia","Malaysia","20120524","","TB 277-278, 2nd Floor, Block 29, Fajar Complex, 91000 Tawau, Sabah, Malaysia.","+60 89 763612"
"5306815","LAFONIA SEA FOODS SA","Spain","","","","","Lafonia Sea Foods SA ","Spain","Spain","20100610","","Cubillon Chapela s/n, 36800 Redondela (Pontevedra), Spain.",""
"5311210","AKITA PUTERA LINES PT","Indonesia","","","","","PT Akita Putera Lines ","Indonesia","Indonesia","20130417","","Blok H, Jalan Akasia Raya 13/7, Kec Tambun, Bekasi, 17510, Indonesia.",""
"5311807","ADRIATIC MARINE LLC","United States of America","+1 985 537 9330","","","www.adriaticmarinellc.com","Adriatic Marine LLC ","United States of America","United States of America","20131025","","201, Raceland Street, Raceland LA 70394-2632, USA.","+1 985 537 9390"
"5314660","CAMORIM SERVICOS MARITIMOS","Brazil","+55 21 2107 3554","","camorim@camorim.com.br","www.camorim.com.br","Camorim Servicos Maritimos Ltda ","Brazil","Brazil","20110608","","Grupo 1408/13, Avenida Venezuela 3, Saude, Rio de Janeiro RJ, 20081-311, Brazil.","+55 21 2233 3479"
"5318129","SCHULTE SHIPMANAGEMENT-UK","United Kingdom","+44 1912 931820","","uk-sdc-man@bs-shipmanagement.com","www.bs-shipmanagement.com","Bernhard Schulte Shipmanagement (UK) Ltd ","United Kingdom","Germany","20140924","","3 Hedley Court, Orion Business Park, North Shields, NE29 7ST, United Kingdom.","+44 1912 931821"
"5326574","SWISSMARINE SERVICES SA","Switzerland","+41 22 827 1888","","operations@swissmarine.ch","www.swissmarine.com","SwissMarine Services SA ","Switzerland","Bermuda","20120807","","Route de Florissant, 13, 1206 Geneva, Switzerland.","+41 22 827 1899"
"5332652","SMT SHIPMANAGEMENT & TRANS-POL","Poland","+48 58 520 7272","","s.pyz@smtshipping.com","www.smtgdynia.pl","SMT Shipmanagement & Transport Gdynia Ltd Sp z oo","Poland","Poland","20130103","","ul Parkowa 46, 81-727 Sopot, Poland.","+48 58 520 7273"
"5344964","MINH DAT TRANSPORT & TRADING","Vietnam","","","","","Minh Dat Transport & Trading Co Ltd ","Vietnam","Vietnam","20090907","","An Lu, Thuy Nguyen District, Haiphong City, Vietnam.",""
"5346444","JIEHENG SHIPPING CO LTD","China, People's Republic of","+86 591 8767 6090","","","","Jieheng Shipping Co Ltd ","Hong Kong, China","China, People's Republic of","20140924","","Room 808, Hengyu Mansion, 150, Dongda Lu, Gulou Qu, Fuzhou, Fujian, China.","+86 591 8767 6093"
"5355102","CHINA CHANGHANG FREIGHT CO","China, People's Republic of","","","","","China Changhang Freight Co ","China, People's Republic of","China, People's Republic of","20080205","","China.",""
"5357815","HELLENIC SHIPMANAGEMENT CORP","Greece","+30 210 455 8900","","operation@hellenic-shipmanagement.com","www.hellenic-carriers.com","Hellenic Shipmanagement Corp ","Marshall Islands","Greece","20081204","","51, Akti Miaouli, 185 36 Piraeus, Greece.","+30 210 455 8829"
"5361582","NEWLEAD SHIPPING SA","Greece","+30 212 955 2000","","technical@newleadship.com","","Newlead Shipping SA ","Panama","Greece","20100429","","83, Akti Miaouli & Flessa Street, 185 38 Piraeus, Greece.","+30 212 955 2001"
"5362841","OCEAN CHOICE INTERNATIONAL","Canada","+1 709 782 6244","","nasales@oceanchoice.com","www.oceanchoice.com","Ocean Choice International (2005) Inc ","Canada","Canada","20130930","","1315, Topsail Road, St John's NL Canada.","+1 709 368 2260"
"5363323","ZHEJIANG SHIPPING  WENZHOU","China, People's Republic of","+86 577 8881 7350","","wzship@wz.zj.cn","www.wenzhouship.com.cn","Zhejiang Shipping Group Wenzhou Shipping Co Ltd","China, People's Republic of","China, People's Republic of","20131031","","8th & 9th Floors, Building A, Union Building, Baili Xilu, Lucheng Qu, Wenzhou, Zhejiang, 325000, China.","+86 577 8885 3469"
"5371969","CHANGNING SHIPPING CO LTD","China, People's Republic of","+86 591 8753 0880","","fjcnships@126.com","www.fzcnshipping.com","Changning Shipping Co Ltd ","China, People's Republic of","China, People's Republic of","20130612","","8th Floor, Zhongmei Mansion, 107, Gutian Lu, Gulou Qu, Fuzhou, Fujian, 350005, China.","+86 591 8738 3365"
"5375992","HOLLAND AMERICA LINE NV","United States of America","+1 206 281 3535","320379halwestrssea","","www.hollandamerica.com","Holland America Line NV ","Curacao","United States of America","20120402","","300, Elliott Avenue W, Seattle WA 98119-4198, USA.","+1 206 281 7110"
"5379156","CREDENCE LOGISTIC PVT LTD","India","","","","","Credence Logistic Pvt Ltd ","India","India","20100505","","Geetapuram Village, Dolvi Taluka, Pen, Raigarh, 402107, India.",""
"5380349","THANH HAI TRANSPORTATION SEA","Vietnam","+84 8 3957 1679","","tranlinh1979@yahoo.com","","Thanh Hai Transportation Sea Co Ltd ","Vietnam","","20130906","","192/30-32, Ngo Quyen, District 10, Ho Chi Minh City, Vietnam.","+84 8 3957 1678"
"5386201","HAINAN STRAIT SHIPPING CO LTD","China, People's Republic of","+86 898 6866 8720","","haixiagufen@163.com","www.hnss.net.cn","Hainan Strait Shipping Co Ltd ","China, People's Republic of","China, People's Republic of","20140220","","7th Floor, East Ocean Building, 288, Binhai Dadao, Xiuying Qu, Haikou, Hainan, 570311, China.","+86 898 6866 7480"
"5389311","GRS ROHDEN SHIPPING GMBH & CO","Germany","+49 40 391920","","office@rohden.de","www.rohden.de","GRS Rohden Shipping GmbH & Co KG ","Germany","Germany","20110927","","Michaelisstrasse 24, 20459 Hamburg, Germany.","+49 40 390 4853"
"5400841","LATSCO LONDON LTD","United Kingdom","+44 20 7907 5050","","shipping@latsco.com","www.latsco.com","Latsco (London) Ltd ","United Kingdom","Bermuda","20100305","","36, Dover Street, London, W1S 4NH, United Kingdom.","+44 20 7907 5051"
"5403863","HOANG SON TRADING CO LTD","Vietnam","+84 31 387 3194","","","","Hoang Son Trading Co Ltd ","Vietnam","Vietnam","20101122","","An Lu, Thuy Nguyen District, Haiphong City, Vietnam.","+84 31 397 2222"
"5409142","NAVIGATOR GAS LLC","United Kingdom","+44 20 7340 4850","","mail@navigatorgas.com","www.navigatorgas.com","Navigator Gas LLC ","Marshall Islands","United Kingdom","20130419","","21, Palmer Street, London, SW1H 0AD, United Kingdom.","+44 20 7340 4858"
"5410145","SEA JOY SHIPPING LTD","Hong Kong, China","+86 63 1567 0979","","seajoy2008@sina.com","","Sea Joy Shipping Ltd ","Hong Kong, China","","20130325","","Room 1106, 69, Jervois Street, Sheung Wan, Hong Kong, China. 999077,",""
"5412190","SINOKOR MARITIME CO LTD","Korea, South","+82 2 6496 2763","","","www.sinokor.co.kr","Sinokor Maritime Co Ltd ","Korea, South","Korea, South","20140529","","Haeanam Building 21, 21, Bukchang-dong, Jung-gu, Seoul, 100-080, South Korea.","+82 2 6496 7259"
"5412359","SCORPIO COMMERCIAL MANAGEMENT","Monaco","+377 97 98 57 00","","info@scorpio.mc","www.scorpio.mc","Scorpio Commercial Management SAM ","Monaco","Monaco","20110512","","Le Millenium, 9, boulevard Charles III, 98000 Monaco-Ville, Monaco.","+377 92 05 70 45"
"5423897","K TANKERING & SHIPMANAGEMENT","Turkey","+90 216 474 0909","","info@kaptanoglu.com","www.kaptanoglu.com","K Tankering & Shipmanagement Co (K Tankercilik ve Gemi Isletmeciligi AS)","Turkey","Turkey","20121217","","Kat 3, Blok A, Denizciler Is Merkezi, Ord Prof Fahrettin Kerim Gokay Caddesi 14, Altunizade Mah, Uskudar, Istanbul, Turkey.","+90 216 651 1620"
"5428703","UNION MARITIME LTD","United Kingdom","+44 20 8900 1344","","legalandadmin@unionmaritime.com","www.unionmaritime.com","Union Maritime Ltd ","United Kingdom","United Kingdom","20130422","","Portland House, 69-71, Wembley Hill Road, Wembley, HA9 8BU, United Kingdom.","+44 20 8900 1372"
"5429061","PHUONG MAI CO LTD","Vietnam","+84 8 6262 0293","","phuongmaishipping@live.com","","Phuong Mai Co Ltd ","Vietnam","Vietnam","20090611","","24, Street 11N, Ngan Hang Residential Area, Ho Chi Minh City, Vietnam.","+84 8 6262 0281"
"5430749","CMB FINANCIAL LEASING CO LTD","China, People's Republic of","+86 21 6105 9999","","zyjrzl@cmbchina.com","www.cmb-leasing.com","CMB Financial Leasing Co Ltd ","China, People's Republic of","China, People's Republic of","20140918","","21st & 22nd Floors, China Merchant Bank Building, 1088, Lujiazui Huanlu, Pudong Xinqu, Shanghai, 200120, China.","+86 21 6105 9900"
"5431251","NORDIC HAMBURG SHIPMGMT GMBH","Germany","+49 40 3770 79177","","shipmanagement@nordic-hamburg.de","www.nordic-hamburg.de","Nordic Hamburg Shipmanagement GmbH & Co KG","Germany","Germany","20130111","","Cremon 32, 20457 Hamburg, Germany.","+49 40 3770 79189"
"5435373","BW FLEET MANAGEMENT PTE LTD","Singapore","+65 6337 2133","","enquiries@bwshipping.com","www.bwmaritime.com","BW Fleet Management Pte Ltd ","Singapore","Bermuda","20130920","","18-01, Mapletree Business City, 10, Pasir Panjang, Singapore 117438","+65 6337 1623"
"5444252","MCC TRANSPORT SINGAPORE PTE","Singapore","+65 6221 2800","","info@mcc.com.sg","www.mcc.com.sg","MCC Transport Singapore Pte Ltd ","Singapore","Denmark","20121011","","07-02, Southpoint, 200, Cantonment Road, Singapore 089763","+65 6221 8366"
"5452782","THORESEN SHIPPING SNG PTE LTD","Singapore","+65 6578 7000","","tramp@thoresen.com","www.thoresenshipping.com","Thoresen Shipping Singapore Pte Ltd ","Singapore","Thailand","20130307","","Suite 22-6, Samsung Hub, 3, Church Street, Singapore 049483","+65 6578 7007"
"5466089","JUN HAO MARINE SHPG CO LTD","Hong Kong, China","","","","","Jun Hao Marine Shipping Co Ltd ","Hong Kong, China","Hong Kong, China","20130528","","Room D, 3rd Floor, Thomson Commercial Building, Thomson Road, Wan Chai, Hong Kong, China.",""
"5466371","RAHBARAN OMID DARYA SHIP MGMT","Iran","+98 21 2610 0190","","","","Rahbaran Omid Darya Ship Management Co ","Iran","Iran","20121128","","Unit 5, 9th Street 2, Ahmad Ghasir Avenue, PO Box 19635-1114, Tehran, Iran.",""
"5467643","HONG KONG TIAN CHENG INTL SHIP","Hong Kong, China","+86 580 286 1916","","zsgse@yahoo.com.cn","","Hong Kong Tian Cheng International Ship Management Co Ltd","Hong Kong, China","China, People's Republic of","20120608","","Room 01B3, 10th Floor, Ltd Flat, Carnival Commercial Building, 18, Java Road, North Point, Hong Kong, China.","+86 580 286 1968"
"5471875","DEVAL TRANSPORT AS","Turkey","+90 21 6651 1672","","transport@deval.com","www.deval.com","Deval Transport AS ","Turkey","Turkey","20130621","","No 18, Kat 3, Blok B, Denizler Is Merkezi, Ord Prof Fahrettin Kerim Gokay Caddesi Altunizade Mah, Uskudar, 34662 Istanbul, Turkey.","+90 21 6474 0430"
"5471963","WEIHAI XINHAI SHIPPING CO LTD","China, People's Republic of","+86 631 516 5999","","whxinhai@126.com","www.whxhshipping.cn","Weihai Xinhai Shipping Co Ltd ","China, People's Republic of","","20131106","","Room 1718, Tower B, Building 1, Letian Shiji City, Qingdao Zhonglu, Huancui Qu, Weihai, Shandong, 264205, China.","+86 631 516 5998"
"5474146","MARQUETTE TRANSPORTATION CO","United States of America","+1 985 475 5108","","","www.marquettetrans.com","Marquette Transportation Co Offshore LLC ","United States of America","United States of America","20140224","","111, W 194th Street, Galliano LA 70354-3834, USA.",""
"5478515","SHANGHAI YANG PU ZHE","China, People's Republic of","+86 21 6335 5999","","cgb@pzhmarine.com","","Shanghai Yang Pu Zhe Hai Shipping Co Ltd ","China, People's Republic of","China, People's Republic of","20130208","","21st Floor, 969, Zhongshan Nanlu, Huangpu Qu, Shanghai, 200011, China.","+86 21 6335 5040"
"5483281","SEACHANGE MARITIME PTE LTD","Singapore","+65 9656 9944","","sqa@seachange-maritime.com","www.seachange-maritime.com","Seachange Maritime (Singapore) Pte Ltd ","Singapore","United States of America","20130902","","21-03, Suntec Tower One, 79, South Bridge Road, Singapore 058709","+65 6884 6552"
"5493667","PATRIA MARITIME LINES PT","Indonesia","+62 31 893 5016","","","www.pml.co.id","PT Patria Maritime Lines ","Indonesia","Indonesia","20140922","","Block H30-40, Kawasan Industri Jababeka, Jalan Jababeka XI Kel Cikarang, Bekasi, 17530, Indonesia.","+62 21 893 6023"
"5496397","KGJ CEMENT FLEET MANAGEMENT","Norway","+47 55 17 51 00","","kgjs@kgjs.no","www.kgjs.no","KGJ Cement Fleet Management AS ","Norway","Norway","20090915","","Folke Bernadottes vei 38, Fyllingsdalen, 5147 Bergen, Norway.","+47 55 17 51 21"
"5497815","SVS MARINE SERVICES PVT LTD","India","+91 22 6787 0000","","svsmarine@svsgroup.in","www.svsgroup.in","SVS Marine Services Pvt Ltd ","India","India","20140922","","8th Floor, Raheja Arcade, Sector 11, CBD Belapur, Navi Mumbai, Maharashtra, 400614, India.","+91 22 2757 4552"
"5505997","ARCTIC SHIPPING LLC","Russia","+7 812 495 9517","","","","Arctic Shipping LLC ","Russia","Russia","20120127","","Office 521, ul Bumazhnaya 9/1, St Petersburg, 190020, Russia.","+7 812 495 9520"
"5507503","UNIVERSAL SHIPMANAGEMENT CORP","Greece","","","","","Universal Shipmanagement Corp ","Marshall Islands","Greece","20091111","","1-3, Patriarchou Grigoriou E' Street, Glyfada, 167 74 Athens, Greece.",""
"5511810","PASIFIK LOJISTIK GRUBU","Turkey","+90 216 446 5555","","fleet@pacifictr.com","www.pacifictr.com","Pasifik Lojistik Grubu ve Denizcilik AS ","Turkey","Turkey","20130923","","Bahar Sokak 1, Postahane Mah, Tuzla, 34940 Istanbul, Turkey.","+90 216 446 5560"
"5521511","SEATEAM MANAGEMENT PTE LTD","Singapore","+65 6631 9850","","singapore@sea-team.com","www.sea-team.com","SeaTeam Management Pte Ltd ","Singapore","Bermuda","20130425","","19-03/04/05, Keppel Towers, 10, Hoe Chiang Road, Singapore 089315","+65 6631 9851"
"5542030","CSC PHOENIX CO LTD","China, People's Republic of","+86 27 8276 3945","","cscxxzx@tom.com","www.csc-hy.com.cn","CSC Phoenix Co Ltd ","China, People's Republic of","China, People's Republic of","20130725","","Hujiang Building, 39, Minquan Lu, Jianghan Qu, Wuhan, Hubei, 430021, China.","+86 27 8276 3149"
"5543691","HOANG TRUNG TRANSPORT CO LTD","Vietnam","+84 31 357 3511","","","","Hoang Trung Transport Co Ltd ","Vietnam","Vietnam","20140129","","An Lu, Thuy Nguyen District, Haiphong City, Vietnam.","+84 31 357 3511"
"5545670","SOIC SHIP MANAGEMENT AB","Sweden","+46 31 779 3450","","info@soic.se","www.soic.se","SOIC Ship Management AB ","Sweden","Sweden","20100602","","Eriksbergstorget Pir 4, SE-417 64 Gothenburg, Sweden.","+46 31 779 3455"
"5546412","SIEM CAR CARRIERS AS","Norway","+47 37 32 25 00","","operation@siemshipping.com","www.siemshipping.com","Siem Car Carriers AS ","Norway","Norway","20130930","","Bark Silas' vei 5, 4876 Grimstad, Norway.","+47 37 32 25 01"
"5554001","MARG INTERNATIONAL DREDGING","Singapore","+65 6293 8089","","midpl@marggroup.com","","MARG International Dredging Pte Ltd ","Singapore","India","20100721","","10-12, Sim Lim Tower, 10, Jalan Besar, Singapore 208787","+65 6293 5756"
"5557611","ECO TANKER ISLETMECILIK VE TIC","Turkey","+90 216 395 2309","","operations@ecotankers.com","","Eco Tanker Isletmecilik ve Ticaret AS ","Turkey","","20130702","","Tersaneler Caddesi 20, Evliya Celebi Mah, Tuzla, 34944 Istanbul, Turkey.","+90 216 446 6731"
"5563031","SMT EUREKA CEMENT","Poland","+48 58 520 7200","","technical@smtgdynia.pl","","SMT Eureka Cement ","Poland","Poland","20121130","","ul Boleslawa Chrobrego 48, 81-723 Sopot, Poland.","+48 58 520 7273"
"5567926","DOCKENDALE SHIP MANAGEMENT DMC","United Arab Emirates","+971 4 341 5701","","dscopr@dockendale.com","www.dockendale.com","Dockendale Ship Management DMC Co ","United Arab Emirates","United Arab Emirates","20121212","","Office 226, Building 4, Gold & Diamond Park, Sheikh Zayed Road, PO Box 262206, Dubai, United Arab Emirates.","+971 4 341 5904"
"5568031","BOREALIS MARITIME LTD","United Kingdom","+44 20 3102 2794","","","www.borealismaritime.com","Borealis Maritime Ltd ","United Kingdom","United Kingdom","20140220","","139, Piccadilly, London, W1J 7NU, United Kingdom.",""
"5575308","SHANGHAI BAOSTEEL SHIPPING CO","China, People's Republic of","+86 21 3867 1888","","","","Shanghai Baosteel Shipping Co Ltd ","China, People's Republic of","China, People's Republic of","20101124","","Room 1101, 370, Pudian Lu, Pudong Xinqu, Shanghai, 200122, China.","+86 21 6840 3791"
"5577732","RCL CRUISES LTD","United Kingdom","+44 1932 834481","","c&i.uk@rccl.com","www.royalcaribbean.co.uk","RCL Cruises Ltd ","United Kingdom","United States of America","20121022","","Building 2, Aviator Park, Station Road, Addlestone, KT15 2PG, United Kingdom.","+44 1932 834399"
"5584575","S&O SHIP MANAGEMENT LTD","Greece","+30 210 452 7050","","central@s-o.gr","www.s-o.gr","S&O Ship Management Ltd ","Cyprus","Greece","20140710","","38/69, Charilaou Trikoupi Street & Okeanidon Street, 192 00 Elefsina, Greece.","+30 210 452 7053"
"5594996","WOODSTREET INC","Hong Kong, China","+852 2876 8500","","","","Woodstreet Inc ","Marshall Islands","Hong Kong, China","20120202","","12th Floor, Warwick House East, TaiKoo Place, 979, Kings Road, Quarry Bay, Eastern, Hong Kong, China.","+852 2876 1500"
"5602569","GIS MARINE LLC","United States of America","+1 985 632 1157","","","www.gismarine.com","GIS Marine LLC ","United States of America","United States of America","20140224","","16210, W Main Street, Cut Off LA 70345-3600, USA.","+1 985 632 4916"
"5605458","ARMADOR GEMI ISLETMECILIG","Turkey","+90 212 501 9020","","ism@armadorshipping.com","www.armadorshipping.com","Armador Gemi Isletmecilig Ticaret Ltd Sti (Armador Shipping)","Turkey","Turkey","20140514","","Kat 3, 3/1 Sokak 2, Sumer Mah, Zeytinburnu, 34025 Istanbul, Turkey.","+90 212 415 5019"
"5609668","SINOUNION SHIPPING SERVICE LTD","Hong Kong, China","+86 591 8334 4866","","sinounion@vip.163.com","","Sinounion Shipping Service Ltd ","Hong Kong, China","","20140703","","Room T78, 18, Bonham Strand West, Sheung Wan, Hong Kong, China.","+86 591 8334 7399"
"5613594","MAREXCO","Spain","","","","","Compania Maritima de Explotacion y Control Operativo SA (MAREXCO)","Spain","Russia","20110607","","Calle de General Rodrigo 6-1, 28003 Madrid, Spain.",""
"5617739","DALRYBPROM JSC","Russia","+7 423 261 4788","","info@dalrybprom.ru","","'Dalrybprom' JSC ","Russia","Russia","20130328","","prospekt Okeanskiy 69, Vladivostok, Primorskiy kray, 690106, Russia.","+7 423 253 9032"
"5624214","ARKAY SEA LOGISTICS LTD","India","+91 26 1668 2400","","","","Arkay Sea Logistics Ltd ","India","","20110808","","Gate 1, Surat-Hazira Road, PO Hazira, Surat, Gujarat, India.","+91 26 1668 2561"
"5624259","CVS DENIZCILIK SANAYI TICARET","Turkey","+90 212 249 9990","","ism@cvsship.com","","CVS Denizcilik Sanayi Ticaret Ltd Sti ","Turkey","","20111201","","Balkan Han, Kemeralti Caddesi 15/2, Hacimimi Mah, Beyoglu, 34425 Istanbul, Turkey.","+90 212 245 5418"
"5637498","TST INTERNATIONAL SA","Greece","+30 210 623 0894","","tstgr@otenet.gr","www.tsti.gr","TST International SA ","Marshall Islands","Greece","20131022","","22, Eleftheron Street, Kifisia, 145 64 Athens, Greece.","+30 210 623 0896"
"5651721","ROSWELL TANKERS CORP","Greece","+30 210 892 9800","","rtc@rtc.gr","","Roswell Tankers Corp ","Liberia","Greece","20130109","","8, Kalamon Street & Poseidonos Avenue, Glyfada, 166 74 Athens, Greece.","+30 210 894 4301"
"5652631","KNOT MANAGEMENT AS","Norway","+47 52 70 40 00","","","","KNOT Management AS ","Norway","Norway","20130411","","Smedasundet 40, 5529 Haugesund, Norway.","+47 52 70 40 40"
"5658202","NTO SHIPPING GMBH & CO KG","Germany","+49 491 928155","","info@ntoship.com","","NTO Shipping GmbH & Co KG ","Germany","Germany","20120514","","Hafenstrasse 10A, 26789 Leer (Ostfriesland), Germany.","+49 491 928 1599"
"5670434","ZHOUSHAN HEHE INT'L SHIPMGMT","China, People's Republic of","+86 580 205 1009","","zhoushanhehe@163.com","","Zhoushan Hehe International Shipmanagement Co Ltd","China, People's Republic of","","20130325","","6th Floor, Changcheng Building, 357, Huancheng Nanlu, Dinghai Qu, Zhoushan, Zhejiang, 316002, China.","+86 580 260 8273"
"5676362","MAERSK TANKERS A/S","Denmark","+45 33 63 33 63","19632mersk","operations@brostrom.com","www.maersk.com","Maersk Tankers A/S ","Denmark","Denmark","20140320","","Esplanaden 50, 1263 Copenhagen, DK, Denmark.","+45 33 63 41 08"
"5679305","YUAN DA SHIPPING CO LTD-HKG","Hong Kong, China","","","","","Yuan Da Shipping Co Ltd ","Hong Kong, China","","20140924","","Room 1509, Wing Tuck Commercial Centre, 177-183, Wing Lok Street, Sheung Wan, Hong Kong, China.",""
"5680047","TRI-MARINE SA","Greece","+30 210 422 4970","240182trim","trimar92@trimar92.gr","","Tri-Marine SA ","Liberia","Greece","20120925","","Megaron Sarla, 38, Akti Poseidonos, 185 31 Piraeus, Greece.","+30 210 422 4974"
"5683789","HYUNDAI OCEAN SERVICE CO LTD","Korea, South","+82 51 600 7039","","","www.hyundaicorp.com","Hyundai Ocean Service Co Ltd ","Korea, South","Korea, South","20120808","","63, Jungang-daero, Jung-gu, Busan, 600-711, South Korea.","+82 51 600 7070"
"5694806","AVIC LEASING CO LTD","China, People's Republic of","+86 21 5289 5388","","info@chinaleasing.net","www.chinaleasing.net","AVIC Leasing Co Ltd ","China, People's Republic of","China, People's Republic of","20140729","","23th Floor, 212, Jiangning Lu, Jing'an Qu, Shanghai, 200041, China.","+86 21 5289 5389"
"5718762","SEATRANS SHIP MANAGEMENT AS","Norway","+47 55 92 32 00","","mail@seatrans.no","www.seatrans.no","Seatrans Ship Management AS ","Norway","Norway","20130115","","Wernersholmvegen 5, 5232 Paradis, Norway.","+47 55 91 22 41"
"5719607","AUGUSTEA TECNOSERVICE SRL","Italy","+39 081 598 0911","94078445","augusteatecnoservice@augustea.com","www.augustea.com","Augustea Tecnoservice Srl ","Italy","Italy","20140722","","Viale Antonio Gramsci 5, 80122 Naples NA, Italy.","+39 081 248 6226"
"5720074","EAST GRAND SHIPPING CO LTD","Hong Kong, China","","","","","East Grand Shipping Co Ltd ","Hong Kong, China","","20130403","","Room 918, Nan Fung Centre, 264-298, Castle Peak Road, Tsuen Wan, New Territories, Hong Kong, China.",""
"5720370","AOYANG SHIPPING CO LTD","Hong Kong, China","","","","","Aoyang Shipping Co Ltd ","Hong Kong, China","Hong Kong, China","20140619","","Room 918, Nan Fung Centre, 264-298, Castle Peak Road, Tsuen Wan, New Territories, Hong Kong, China. 999077,",""
"5722892","LD PORTS & LOGISTICS PTE LTD","Singapore","+65 6576 9877","","info@oms.sg","www.ldpl.com","LD Ports & Logistics Pte Ltd ","Singapore","Singapore","20140418","","45A, Club Street, Singapore 069422","+65 6222 6169"
"5734382","SEA TRUCKS NETHERLANDS","Netherlands","+31 10 754 0100","","","www.seatrucksgroup.com","Sea Trucks Netherlands Cooperatie UA ","Netherlands","Nigeria","20140529","","Delftseplein 27N, 3013 AA Rotterdam, Netherlands.","+31 10 754 0199"
"5736481","SCF NOVOSHIP TECHNICAL MGMT","Russia","+7 861 760 1626","","vetting@novoship.ru","www.novoship.ru","LLC Co 'SCF Novoship Technical Management'","Russia","Russia","20130701","","ul Svobody 1, Novorossiysk, Krasnodarskiy kray, 353900, Russia.","+7 861 760 1060"
"5753427","SAPURAKENCANA DRILLING PTE LTD","Singapore","+65 6422 1000","","","www.sapurakencana.com","Sapurakencana Drilling Pte Ltd ","Singapore","Malaysia","20130731","","18-01, Keppel Towers, 10, Hoe Chiang Road, Singapore 089315","+65 6222 5592"
"5762592","WALLEM SHIPMANAGEMENT SNG","Singapore","+65 6697 0700","","technicalsg@wallem.com","www.wallem.com","Wallem Shipmanagement Singapore Pte Ltd ","Singapore","Hong Kong, China","20131001","","02-04/05, 991, Alexandra Road, Singapore 119964","+65 6276 4374"
"5763940","AHLMA FISKERI AB","Sweden","+46 70 399 0047","","","","Ahlma Fiskeri AB ","Sweden","Sweden","20131014","","Fiskebacks hamn 10, SE-426 58 Vastra Frolunda, Sweden.",""
"5770001","PHU HAI HUNG TRADING SHIPPING","Vietnam","+84 8 3785 0138","","","","Phu Hai Hung Trading Shipping Service Co Ltd (Cong Ty Tnhh TM-Dich Vu VTB Phu Hai Hung) ","Vietnam","Vietnam","20101123","","168, Hoang Quoc Viet, District 7, Ho Chi Minh City, Vietnam.",""
"5776234","NORTHERN MARINE FERRIES LTD","United Kingdom","+44 1418 763000","","","","Northern Marine Ferries Ltd ","United Kingdom","Sweden","20131219","","Alba House, 2, Central Avenue, Clydebank Business Park, Clydebank, G81 2QR, United Kingdom.","+44 1419 412791"
"5776601","HUNG HUNG TRADE & TRANSPORT CO","Vietnam","+84 36 385 3395","","phucgiahung0913@gmail.co","","Hung Hung Trade & Transport Co Ltd ","Vietnam","Vietnam","20131223","","223, Zone 1, Diem Dien, Thai Thuy District, Thai Binh Province, Vietnam.","+84 36 385 3395"
"5782927","MASTERBULK SHIP MANAGEMENT PTE","Singapore","+65 6229 6100","","office@masterbulk.com.sg","www.masterbulk.com.sg","Masterbulk Ship Management Pte Ltd ","Singapore","Norway","20140129","","23-01, 79, Anson Road, Singapore 079906","+65 6222 1272"
"5786536","YANTAI BOHAI FERRY INT'L SHIP","China, People's Republic of","+86 535 628 7046","","wpb@bohailund.cn","","Yantai Bohai Ferry Int'l Ship Management Co Ltd","China, People's Republic of","China, People's Republic of","20140226","","2, Huanhai Lu, Zhifu Qu, Yantai, Shandong, China.","+86 535 665 9678"
"5794964","EAST BRIGHT INTERNATIONAL SHPG","Hong Kong, China","+852 2406 0669","","","","East Bright International Shipping Ltd ","Hong Kong, China","","20140616","","Room 18, 9th Floor, Nan Fung Centre, 264-298, Castle Peak Road, Tuen Mun, New Territories, Hong Kong, China.","+852 2406 8005"
"5800969","NANJING JIANGHAI TANKER CO LTD","China, People's Republic of","+86 523 8687 9090","","","","Nanjing Jianghai Tanker Co Ltd ","China, People's Republic of","","20140520","","5th Floor, 507, Zhongshan Nanlu, Baixia Qu, Nanjing, Jiangsu, China.","+86 523 8687 9113"
"5809684","CAPE COASTAL MARINE LLC","United States of America","+1 985 242 3066","","","www.capecoastalmarine.com","Cape Coastal Marine LLC ","United States of America","United States of America","20140711","","Suite 4, 4685, Highway 1, Raceland LA 70394-2624, USA.","+1 985 532 5551"
"5818581","CAMILLO EITZEN & CO AS","Norway","","","","","Camillo Eitzen & Co AS ","Norway","Norway","20140908","","Kronprinsens gate 5, Oslo, Norway.",""
"9984588","NOT APPLICABLE","","","","","","Not Applicable ","","","20070802","","",""
"9991001","  UNKNOWN","","","","","","Unknown ","","","20090209","","",""
